[{"_id":{"$oid":"5e170c59c27aa15cda0a1e52"},"modeOfTransport":"Mode of Transport","postCode":"PostCode","name":"Full Name","std":"Class Section","address":"Home Address","__v":0},{"_id":{"$oid":"5e170c59c27aa15cda0a1e53"},"modeOfTransport":"Van","postCode":"360005","name":"Khanak Mitul  Faldu","std":"Sr.KgC","address":"A-204 , Aakruti Apt . Near Modi school , Ambika township , opp. Mavdi plot headquaters","__v":0},{"_id":{"$oid":"5e170c59c27aa15cda0a1e54"},"modeOfTransport":"Van","postCode":"360004","name":"Shreyaben Rajeshbhai Rank","std":"Sr.KgD","address":"7 Labhdeep socitey, 150 Ft Ring Road Mavdi Chowk","__v":0},{"_id":{"$oid":"5e170c59c27aa15cda0a1e55"},"modeOfTransport":"Van","postCode":"360005","name":"Aradhya Jiten Dave","std":"Sr.KgD","address":"c\\0 \"Prashant\", Bhid Banjan Socitey. Nilkanth Nagar Main Road University Road","__v":0},{"_id":{"$oid":"5e170c59c27aa15cda0a1e56"},"modeOfTransport":"Parent","postCode":"360005","name":"Aaradhya Sachinbhai Vyas","std":"Sr.KgB","address":"Sopan Hebitet c-201, Patidar Chowk Sadhuvasvani Road","__v":0},{"_id":{"$oid":"5e170c59c27aa15cda0a1e57"},"modeOfTransport":"Van","postCode":"360007","name":"Vishwa Hiteshbhai Raigagla","std":"Sr.KgA","address":"3-Rajhans Socitey, Opp. Kadar Vora Street , Raiya Road","__v":0},{"_id":{"$oid":"5e170c59c27aa15cda0a1e58"},"modeOfTransport":"Van","postCode":"360005","name":"Mishti Pankaj Tekwani","std":"Sr.KgA","address":"\"Premier Palce A\" 107, New College Wadi Street No.3, B\\h Pinjab Honda Show Room","__v":0},{"_id":{"$oid":"5e170c59c27aa15cda0a1e59"},"modeOfTransport":"Van","postCode":"360007","name":"Jeniliya Niradbhai Ankleshwariya","std":"Sr.KgB","address":"\"Kashyap\" Block No.-I-9, Shiv Park, Street No.2 Raiya Road","__v":0},{"_id":{"$oid":"5e170c59c27aa15cda0a1e5a"},"modeOfTransport":"Parent","postCode":"360005","name":"Tirtha  Rajnikant  Pan","std":"Sr.KgB","address":"Block No.1, Utsav Park, Sadhuvasvani Raod","__v":0},{"_id":{"$oid":"5e170c59c27aa15cda0a1e5b"},"modeOfTransport":"Van","postCode":"360005","name":"Bhakti Nirenkumar Vachhani","std":"Sr.KgD","address":"\"Satyam\" Block No. 402, Tirupati Park","__v":0},{"_id":{"$oid":"5e170c59c27aa15cda0a1e5c"},"modeOfTransport":"Parent","postCode":"360005","name":"Mahiben Hareshbhai Kalola","std":"Sr.KgA","address":"Janakpuri Soc. Street No.4 Block No. 142 Sadhuvasvani Road","__v":0},{"_id":{"$oid":"5e170c59c27aa15cda0a1e5d"},"modeOfTransport":"Van","postCode":"360005","name":"Heer Vishal Moliya","std":"Sr.KgC","address":"\"Amrut Dhara\" Flat no 402 Dadi Baugh, Master society Main Road Near Sorathiyawadi Circle","__v":0},{"_id":{"$oid":"5e170c59c27aa15cda0a1e5e"},"modeOfTransport":"Van","postCode":"360005","name":"Yashvi Ketanbhai Virani","std":"Sr.KgD","address":"Block no 26 Om Sanidhya bunglows opp Balaji Hall 150 feet ring road","__v":0},{"_id":{"$oid":"5e170c59c27aa15cda0a1e5f"},"modeOfTransport":"Van","postCode":"360005","name":"Misri Mitulbhai Kalariya","std":"Sr.KgB","address":"102 Subh Palace, Nana Mawa Road B\\H Alay Park","__v":0},{"_id":{"$oid":"5e170c59c27aa15cda0a1e60"},"modeOfTransport":"Parent","postCode":"360005","name":"Maahi  Hiren Makadia","std":"Sr.KgB","address":"614-Nand Village, Patidar Chowk, Sadhuwasvani Road","__v":0},{"_id":{"$oid":"5e170c59c27aa15cda0a1e61"},"modeOfTransport":"Parent","postCode":"360005","name":"Honey  Nishantbhai Khimani","std":"Sr.KgD","address":"\"Mahavir\",150 Ft Ring Road Nr. Jai Ganesh Showroom , Opp. Modi School","__v":0},{"_id":{"$oid":"5e170c59c27aa15cda0a1e62"},"modeOfTransport":"Parent","postCode":"360005","name":"Purva Milan Bhalodi","std":"Sr.KgD","address":"332, Tower No. 3, Nand Gav Appartment, Nr. Vasant Vihar Patidar Chowk Sadhuvasvani Road","__v":0},{"_id":{"$oid":"5e170c59c27aa15cda0a1e63"},"modeOfTransport":"Parent","postCode":"360005","name":"Mishri Kashyap Ankaleshvaria","std":"Sr.KgA","address":"101 1st Floor. Maniraj App-2, nr. Parshuram Marble, Indraprasth Nagar, B\\H Alap Green","__v":0},{"_id":{"$oid":"5e170c59c27aa15cda0a1e64"},"modeOfTransport":"Van","postCode":"360005","name":"Heer Amitbhai Sabhaya","std":"Sr.KgD","address":"\"Saraswat\" Nandi PARK 2/6 Corner University Road ","__v":0},{"_id":{"$oid":"5e170c59c27aa15cda0a1e65"},"modeOfTransport":"Van","postCode":"360005","name":"Vari Meetbhai Vachhani","std":"Sr.KgC","address":"Block no 113 Janakpuri Society Sadhuvaswani road","__v":0},{"_id":{"$oid":"5e170c59c27aa15cda0a1e66"},"modeOfTransport":"Van","postCode":"360005","name":"Nency  Chintanbhai Dhruv","std":"Sr.KgA","address":"603 Nandniketan opp Near Ghanteshwar hotel Jamnagar Road","__v":0},{"_id":{"$oid":"5e170c59c27aa15cda0a1e67"},"modeOfTransport":"Van","postCode":"360005","name":"Nandini Vinaybhai Radadiya","std":"Sr.KgA","address":"\"Giriraj\" Naval nagar 2-B Behind Prakash high school Mavdi Main Road","__v":0},{"_id":{"$oid":"5e170c59c27aa15cda0a1e68"},"modeOfTransport":"Parent","postCode":"360005","name":"Khushi Ankur Mungra","std":"Sr.KgA","address":"\"Arvi\" Block no 99 Ajanta Park Sadhuwaswani Road Rajkot","__v":0},{"_id":{"$oid":"5e170c59c27aa15cda0a1e69"},"modeOfTransport":"Parent","postCode":"360005","name":"Rhythm Nilesh Kamariya","std":"Sr.KgB","address":"Unit no -4 block no -422 Nand parishar complex Sadhuvashvani Road","__v":0},{"_id":{"$oid":"5e170c59c27aa15cda0a1e6a"},"modeOfTransport":"Van","postCode":"360006","name":"Jui Jigar Mehta","std":"Sr.KgB","address":"C-403 Royal Homes Near Nageshwar Jain Temple OPP central bank Ghanteshwar","__v":0},{"_id":{"$oid":"5e170c59c27aa15cda0a1e6b"},"modeOfTransport":"Van","postCode":"360003","name":"Sakshi Devraj Chauhan","std":"Sr.KgC","address":"Manharpara Near Thorada Police Station Rajkot","__v":0},{"_id":{"$oid":"5e170c59c27aa15cda0a1e6c"},"modeOfTransport":"Van","postCode":"360005","name":"Navya Hiren Savjiyani","std":"Jr.KgB","address":"3 Kailash dhara park, 'Jala Ashish' b/h aalap green city,Raiya road","__v":0},{"_id":{"$oid":"5e170c59c27aa15cda0a1e6d"},"modeOfTransport":"Van","postCode":"360002","name":"Pari  Vishalbhai Patel","std":"Jr.KgA","address":"Wing B,Amrutdhara Appt., b/h kothariya swimming pool,master soc. Main road","__v":0},{"_id":{"$oid":"5e170c59c27aa15cda0a1e6e"},"modeOfTransport":"Parent","postCode":"360005","name":"Dwija Purvesh Sakariya","std":"Jr.KgC","address":"Near Ram temple,b/h Om sai house, Raiya","__v":0},{"_id":{"$oid":"5e170c59c27aa15cda0a1e6f"},"modeOfTransport":"Van","postCode":"360005","name":"Vrunda Vinodbhai Pansuriya","std":"Jr.KgA","address":"B-203 Sansakar city, Nr. Ramdham temple mavdi baypass,Mavdi","__v":0},{"_id":{"$oid":"5e170c59c27aa15cda0a1e70"},"modeOfTransport":"Parent","postCode":"360005","name":"Swara Navjyot Raval","std":"Jr.KgC","address":"Shri city,C-501,NR. Harivandana college,b/h saurashtra university,christ college road","__v":0},{"_id":{"$oid":"5e170c59c27aa15cda0a1e71"},"modeOfTransport":"Van","postCode":"360005","name":"Kahan   Renish Vachhani","std":"Jr.KgC","address":"Sadhu vasvani road,Shymal varlix,A wing 802, Nr pramukh swami auditorim","__v":0},{"_id":{"$oid":"5e170c59c27aa15cda0a1e72"},"modeOfTransport":"Van","postCode":"360005","name":"Falak Jayesh Jethva","std":"Jr.KgB","address":"\"Jayesh\" Archana park-7, university road , near jiven shanti school","__v":0},{"_id":{"$oid":"5e170c59c27aa15cda0a1e73"},"modeOfTransport":"Van","postCode":"360005","name":"Palak Sharadbhai Hansaliya","std":"Sr.KgB","address":"401-Ashtavashu app.,vimal gar,b/h alap avenue,university road","__v":0},{"_id":{"$oid":"5e170c59c27aa15cda0a1e74"},"modeOfTransport":"Parent","postCode":"360001","name":"Janvi Rajeshbhai Vadher","std":"Sr.KgA","address":"402-H,Aditya heights,gopal chowk,sadhu vasvani road ","__v":0},{"_id":{"$oid":"5e170c59c27aa15cda0a1e75"},"modeOfTransport":"Parent","postCode":"360005","name":"Krisha  Pranav Dobariya","std":"Sr.KgB","address":"\"And\" Blk no .25 Bansari Soc. B/H Central school Kalawad Road","__v":0},{"_id":{"$oid":"5e170c59c27aa15cda0a1e76"},"modeOfTransport":"van","postCode":"360005","name":"Meera Ajaybhai Hirapara","std":"Sr.KgA","address":"120 Chitrakutdham B/H Crystal mall, Klawad road","__v":0},{"_id":{"$oid":"5e170c59c27aa15cda0a1e77"},"modeOfTransport":"Van","postCode":"360001","name":"Priyanshi Kamleshbhai Prajapati","std":"Sr.KgC","address":"E-401, Sopan habitat, Sadhu vasvani road,patidar chowk,near topland residency ","__v":0},{"_id":{"$oid":"5e170c59c27aa15cda0a1e78"},"modeOfTransport":"Parent","postCode":"360005","name":"Vidhiben Narendra Zala","std":"Sr.KgD","address":"\"Nidhi\" Ruxmani block no 7 ManigarB/H Rameshwarhall, Raioya road","__v":0},{"_id":{"$oid":"5e170c59c27aa15cda0a1e79"},"modeOfTransport":"Van","postCode":"360001","name":"Nirvi Vikas Kothari","std":"Sr.KgA","address":"3,Jagnath plot \"Jay vijay\" opp Akar Appt.","__v":0},{"_id":{"$oid":"5e170c59c27aa15cda0a1e7a"},"modeOfTransport":"Parent","postCode":"360005","name":"Khanak Shakti Jani","std":"Sr.KgD","address":"\"Bahusmarna Krupa\" 6- vaishali gar, opp. Amrapalicinema , Raiya road","__v":0},{"_id":{"$oid":"5e170c59c27aa15cda0a1e7b"},"modeOfTransport":"Van","postCode":"360007","name":"Aanya Mukeshkumar Gupta","std":"Sr.KgC","address":"Niket',33/A/1/2, Somth society, near raiya tel exchange opp Trimurti Balaji Mandir, 150 feet ring road","__v":0},{"_id":{"$oid":"5e170c59c27aa15cda0a1e7c"},"modeOfTransport":"Van","postCode":"360005","name":"Maanya Gemishbhai Desai","std":"Sr.KgB","address":"Backbone platinium B -502 Sadhuvashvani Road","__v":0},{"_id":{"$oid":"5e170c59c27aa15cda0a1e7d"},"modeOfTransport":"Parent","postCode":"360005","name":"Manvi Ankurbhai Kalaria","std":"Sr.KgC","address":"\"avadh\" sarita park -3 nearmadhuvan park patidar chowk sadhuvashvani road","__v":0},{"_id":{"$oid":"5e170c59c27aa15cda0a1e7e"},"modeOfTransport":"Van","postCode":"360001","name":"Krisha Kaushik Joshi","std":"Sr.KgC","address":"\"Bhav Saurabha\" Tirupati-3 ,Raiya road ","__v":0},{"_id":{"$oid":"5e170c59c27aa15cda0a1e7f"},"modeOfTransport":"Parent","postCode":"360005","name":"Hiya Manishkumar Tank","std":"Sr.KgA","address":"\"Nyal karan\"Nr.Aaryalana Ambica park,opp ambica township,near aryaland,block no.132","__v":0},{"_id":{"$oid":"5e170c59c27aa15cda0a1e80"},"modeOfTransport":"Van","postCode":"360007","name":"Manashreeba Shivrajsinh  Jadeja","std":"Sr.KgB","address":",Dharam nagar , B/H Raj bank , ","__v":0},{"_id":{"$oid":"5e170c59c27aa15cda0a1e81"},"modeOfTransport":"Van","postCode":"360005","name":"Jiya Mayurbhai Savaliya","std":"Sr.KgD","address":"Chandra park 2, St.no. 17, block no.267,near big bazar,150 feet ring road","__v":0},{"_id":{"$oid":"5e170c59c27aa15cda0a1e82"},"modeOfTransport":"Parent","postCode":"360005","name":"Swara Bhaveshbhai Kanani","std":"Sr.KgB","address":"nd vihar appartment,near sadhu vashvai road,tower no.1,block no 113,near nd parisad","__v":0},{"_id":{"$oid":"5e170c59c27aa15cda0a1e83"},"modeOfTransport":"","postCode":"360005","name":"Arohi Rameshbhai Kotadia","std":"Sr.KgD","address":"Parivar recidency block no-101 chaitanya bunglow ","__v":0},{"_id":{"$oid":"5e170c59c27aa15cda0a1e84"},"modeOfTransport":"Parent","postCode":"360005","name":"Vansheeka Sanjaybhai Sodhatar","std":"Sr.KgC","address":"B-2132 , Yogeshwar park flat , near janak puri society","__v":0},{"_id":{"$oid":"5e170c59c27aa15cda0a1e85"},"modeOfTransport":"Van","postCode":"360005","name":"Vaidehi Krunal Kotadiya","std":"Sr.KgD","address":"19-Chandra park society,plot no.328,near big bazar,150 feet ring road","__v":0},{"_id":{"$oid":"5e170c59c27aa15cda0a1e86"},"modeOfTransport":"Van","postCode":"360007","name":"Mahi  Maheshbhai Makwana","std":"Sr.KgC","address":"\"Ravechi Krupa\" 1- dharam gar, Gandhigram 150 feet ring road ","__v":0},{"_id":{"$oid":"5e170c59c27aa15cda0a1e87"},"modeOfTransport":"Van","postCode":"360005","name":"Niva Dharmeshbhai Moliya","std":"Sr.KgB","address":"Madhapar jamnagar road,Rajput wadi street T.1","__v":0},{"_id":{"$oid":"5e170c59c27aa15cda0a1e88"},"modeOfTransport":"Van","postCode":"360005","name":"Hiya Kishorbhai Gadhiya","std":"Sr.KgB","address":"Nanavati chowk,santosh park,street no.2 block no.41","__v":0},{"_id":{"$oid":"5e170c59c27aa15cda0a1e89"},"modeOfTransport":"Van","postCode":"360006","name":"Dhyani Mayurbhai Vekariya","std":"Sr.KgA","address":"AT Madhapar,vrundavan society,street no.2 ,jamgar road","__v":0},{"_id":{"$oid":"5e170c59c27aa15cda0a1e8a"},"modeOfTransport":"Van","postCode":"360001","name":"Khushi Akash Gohel","std":"Sr.KgD","address":"Bipin Villa' 16 ,Prahlad plot,ashapura main road ","__v":0},{"_id":{"$oid":"5e170c59c27aa15cda0a1e8b"},"modeOfTransport":"Parent","postCode":"360005","name":"Riva Ashokkumar  Kagathara","std":"Sr.KgD","address":"I -101 shilpan near T.N. Rao Coolege","__v":0},{"_id":{"$oid":"5e170c59c27aa15cda0a1e8c"},"modeOfTransport":"Parent","postCode":"360001","name":"Purnima Chetanbhai Rola","std":"Sr.KgC","address":"\"Parisharam\" santosh p[ark street no -1 150 feet ring road opp Straling hospital ","__v":0},{"_id":{"$oid":"5e170c59c27aa15cda0a1e8d"},"modeOfTransport":"Van","postCode":"360005","name":"Krutha Hetav Joshi","std":"Sr.KgD","address":"\"Bhavani Krupa\" tulshi park society -2 ,Near Raiya Telephone excchange , 150 feet ring road","__v":0},{"_id":{"$oid":"5e170c59c27aa15cda0a1e8e"},"modeOfTransport":"Parent","postCode":"360005","name":"Dharmi Naresh Ambaliya","std":"Sr.KgC","address":"University road akashvani chowk  quarters no -32 b-60 ","__v":0},{"_id":{"$oid":"5e170c59c27aa15cda0a1e8f"},"modeOfTransport":"Van","postCode":"360005","name":"Harmi  Vimalbhai Kalariya","std":"Sr.KgD","address":"\"Dwarkadham\" B-4 Kalawad road Satyasai Marg","__v":0},{"_id":{"$oid":"5e170c59c27aa15cda0a1e90"},"modeOfTransport":"Van","postCode":"360005","name":"Jelam Bikenbhai Vachhani","std":"Jr.KgA","address":"Sadhu vasvani road,Shymal varlix,A wing 802, Nr pramukh swami auditorim","__v":0},{"_id":{"$oid":"5e170c59c27aa15cda0a1e91"},"modeOfTransport":"Parent","postCode":"360005","name":"Vandini Baij Sen","std":"Sr.KgC","address":"Block no -35 Quarter no -273 ,A.G. Satff colony , Near Saurashtra university campus ","__v":0},{"_id":{"$oid":"5e170c59c27aa15cda0a1e92"},"modeOfTransport":"Parent","postCode":"360007","name":"Aanshi Hiren Oza","std":"Sr.KgC","address":"\"Gurumadhi\" B 16  prabhu recidency , Dwarkadhis park , Raiya road","__v":0},{"_id":{"$oid":"5e170c59c27aa15cda0a1e93"},"modeOfTransport":"Parent","postCode":"360005","name":"Mishti Jigneshbhai Ayar","std":"Sr.KgB","address":"Prashil park block no :82","__v":0},{"_id":{"$oid":"5e170c59c27aa15cda0a1e94"},"modeOfTransport":"Van","postCode":"360005","name":"Maheshwariba Rajeshbhai Dhakhda","std":"Sr.KgD","address":"Parijat recidency block no -1 sadhu vashvani road,","__v":0},{"_id":{"$oid":"5e170c59c27aa15cda0a1e95"},"modeOfTransport":"Van","postCode":"360005","name":"Aaradhya Hiteshbhai Vaghasiya","std":"Sr.KgC","address":"A-7 Dwarika dham Apartment , opp. Aalap Haritage , Satya Sai road","__v":0},{"_id":{"$oid":"5e170c59c27aa15cda0a1e96"},"modeOfTransport":"Parent","postCode":"360005","name":"Dhyani Manishbhai Kathrotiya","std":"Jr.KgA","address":"Tulsi Avenue App. Block n-202 kailash park -13 university road","__v":0},{"_id":{"$oid":"5e170c59c27aa15cda0a1e97"},"modeOfTransport":"Parent","postCode":"360005","name":"Hetviben   Nikunj Gondaliya","std":"Jr.KgA","address":"Not decided","__v":0},{"_id":{"$oid":"5e170c59c27aa15cda0a1e98"},"modeOfTransport":"Parent","postCode":"360001","name":"Viya Vershi Odedra","std":"Jr.KgC","address":"Vasant Marvel,C-302,Vimal nagar main road","__v":0},{"_id":{"$oid":"5e170c59c27aa15cda0a1e99"},"modeOfTransport":"Van","postCode":"360003","name":"Aarya  Kamlesh Sankhavara","std":"Jr.KgA","address":"2, Shree ranchodnagar society,opp. Ambaji refinary,Sant kabir road","__v":0},{"_id":{"$oid":"5e170c59c27aa15cda0a1e9a"},"modeOfTransport":"Van","postCode":"360005","name":"Pooja Kiranbhai Makadia","std":"Jr.KgB","address":"202,Subh complex Nr Dr. Mathur's clinic B/H Raiya exchange 150 feet ring road","__v":0},{"_id":{"$oid":"5e170c59c27aa15cda0a1e9b"},"modeOfTransport":"Parent","postCode":"360004","name":"Jesal  Hiteshbhai Rathod","std":"Jr.KgA","address":"Nana mauva circle , vividh karmchari society plot no :18","__v":0},{"_id":{"$oid":"5e170c59c27aa15cda0a1e9c"},"modeOfTransport":"Van","postCode":"360005","name":"Aarjavi Surpalbhai Nakum","std":"Sr.KgB","address":"Soham Paramount-5 Rushikesh 1 corner behind ayurved hospital univeristy road","__v":0},{"_id":{"$oid":"5e170c59c27aa15cda0a1e9d"},"modeOfTransport":"Van","postCode":"360005","name":"Dhyana Sandipbhai Amipara","std":"Sr.KgC","address":"Shree krushan kunj , street no :4 , tirupati park , nananmava road","__v":0},{"_id":{"$oid":"5e170c59c27aa15cda0a1e9e"},"modeOfTransport":"","postCode":"360007","name":"Manya Tusharkumar Radia","std":"Jr.KgC","address":"\"Achyut\"2-Rameshwar Park Block no 5 Street no 5 Raiya Road","__v":0},{"_id":{"$oid":"5e170c59c27aa15cda0a1e9f"},"modeOfTransport":"","postCode":"360002","name":"Aaditri Bharatbhai Gadhiya","std":"NurA","address":"Gitanjali park, street 7, B/h. Anand nagar quarter, Kothariya main road","__v":0},{"_id":{"$oid":"5e170c59c27aa15cda0a1ea0"},"modeOfTransport":"","postCode":"360002","name":"Jansi Hiteshbhai Gadhiya","std":"NurA","address":"101-Shivam Complex, Shree Ram park, Opp. Raj bank, Kothariya main road","__v":0},{"_id":{"$oid":"5e170c59c27aa15cda0a1ea1"},"modeOfTransport":"","postCode":"360005","name":"Jesvee Bhavinbhai Ghetia","std":"NurA","address":"302-Appt Shrirang ram park main road, kalawad road, Opp. Atmiya college","__v":0},{"_id":{"$oid":"5e170c59c27aa15cda0a1ea2"},"modeOfTransport":"","postCode":"360005","name":"Ruhi Rashikbhai Baraiya","std":"NurA","address":"Sadhu Vaswanu road, Janakpuri Soc -4, B-172","__v":0},{"_id":{"$oid":"5e170c59c27aa15cda0a1ea3"},"modeOfTransport":"","postCode":"360005","name":"Aayat Ashifbhai Shama","std":"NurA","address":"B-2, Amarnath park-2, Near Gangotri park, Opp. Kidney Hospital","__v":0},{"_id":{"$oid":"5e170c59c27aa15cda0a1ea4"},"modeOfTransport":"","postCode":"360002","name":"Maahi  Prakashbhai Garsondiya","std":"NurA","address":"\"Bramhani Krupa\", new Rameshwar Soc., Stree 5, Opp. Swami narayan Temple","__v":0},{"_id":{"$oid":"5e170c59c27aa15cda0a1ea5"},"modeOfTransport":"","postCode":"360005","name":"Jenny Sandipkumar Kanani","std":"NurA","address":"13-Surya park - F, Opp., Chandan Super Market, Amin marg","__v":0},{"_id":{"$oid":"5e170c59c27aa15cda0a1ea6"},"modeOfTransport":"","postCode":"360005","name":"Yanti Hitulkumar Patel","std":"NurA","address":"D-101, Shyamal Vatika, Near T. N Rao School, Gangotri park main road","__v":0},{"_id":{"$oid":"5e170c59c27aa15cda0a1ea7"},"modeOfTransport":"","postCode":"360005","name":"Veera Vishal Hirani","std":"NurA","address":"B-96, Alap Avenue, Near Pushkardham Soc., University road","__v":0},{"_id":{"$oid":"5e170c59c27aa15cda0a1ea8"},"modeOfTransport":"","postCode":"360005","name":"Trusha Nileshbhai Bharadiya","std":"Jr.KgC","address":"B-87, Siddhi Vinayak Soc. Opp. Ayodhya Chowk, 150 feet ring road","__v":0},{"_id":{"$oid":"5e170c59c27aa15cda0a1ea9"},"modeOfTransport":"","postCode":"360006","name":"Moxika Nishantkumar Joshi","std":"Jr.KgC","address":"Shree Shankheshwar-4, B-403, Near Patel Chowk, Nageshwar Temple, Jamnagar Road","__v":0},{"_id":{"$oid":"5e170c59c27aa15cda0a1eaa"},"modeOfTransport":"","postCode":"360004","name":"Aarvi Kalpesh Dalsaniya","std":"Jr.KgA","address":"\"Umavanshi\", New Gandhinagar, Co-Op Housing Soc, Street 8/B, B/h. Shashtri nagar, Nana Mauva Road","__v":0},{"_id":{"$oid":"5e170c59c27aa15cda0a1eab"},"modeOfTransport":"","postCode":"360005","name":"Mahek Atulbhai Patel","std":"Jr.KgA","address":"D-201, Shyamal Vatika, Near T.N. Rao College, Gayatri main road, University road","__v":0},{"_id":{"$oid":"5e170c59c27aa15cda0a1eac"},"modeOfTransport":"","postCode":"360005","name":"Charvi Chiragbhai Gajera","std":"Jr.KgA","address":"18, Block no. 402, Adinath Appt","__v":0},{"_id":{"$oid":"5e170c59c27aa15cda0a1ead"},"modeOfTransport":"","postCode":"360004","name":"Vanshika Gaurav Bhalodiya","std":"Jr.KgC","address":"Dearm city, E-701, Mavdi Kankot Road","__v":0},{"_id":{"$oid":"5e170c59c27aa15cda0a1eae"},"modeOfTransport":"","postCode":"360007","name":"Tirtha Anilbhai Nadiyapara","std":"Jr.KgB","address":"\"Bhagvat\" 6- Mochinagar, Street no. 1, near Pathak school, 150 feet ring road, Gandhigram","__v":0},{"_id":{"$oid":"5e170c59c27aa15cda0a1eaf"},"modeOfTransport":"","postCode":"360007","name":"Jayvi Jaydeep Pandya","std":"Jr.KgC","address":"\"Sadhana\" Appt., B-303, Somnath 2, Kidvay nagar main road","__v":0},{"_id":{"$oid":"5e170c59c27aa15cda0a1eb0"},"modeOfTransport":"","postCode":"360007","name":"Gayatriba Yashpalsinh Zala","std":"Jr.KgC","address":"\"Shiv Shakti\", 3/4 Shanti Niketan park 1, B/h. Giriraj nagar, Near raiya circle, 150 feet ring road","__v":0},{"_id":{"$oid":"5e170c59c27aa15cda0a1eb1"},"modeOfTransport":"","postCode":"360006","name":"Heer Jignesh Chandarana","std":"Jr.KgC","address":"\"Jalaram krupa\", 2, Punit nagar, Street no-4, Jamnagar road","__v":0},{"_id":{"$oid":"5e170c59c27aa15cda0a1eb2"},"modeOfTransport":"","postCode":"360006","name":"Swara Ghanshyam Moliya","std":"Jr.KgC","address":"Jamnagar road, Madhapar, Rajpuvadi street, Madhapar","__v":0},{"_id":{"$oid":"5e170c59c27aa15cda0a1eb3"},"modeOfTransport":"","postCode":"360005","name":"Shriya Vipulbhai Ramoliya","std":"Jr.KgC","address":"Nand Village, Tower No-7, Flat No. 733, Near Patidar chowk, B/h. Vasant Vihar","__v":0},{"_id":{"$oid":"5e170c59c27aa15cda0a1eb4"},"modeOfTransport":"","postCode":"360006","name":"Griva Jaydeepbhai Moliya","std":"Jr.KgB","address":"\"Khodiyar Nivas\", Ishwariya Mahadev road, Near Fatak, Madhapar Villege","__v":0},{"_id":{"$oid":"5e170c59c27aa15cda0a1eb5"},"modeOfTransport":"","postCode":"360005","name":"Jency Renishkumar Chapla","std":"Jr.KgB","address":"8 Janakpuri, Sadhu vaswani road","__v":0},{"_id":{"$oid":"5e170c59c27aa15cda0a1eb6"},"modeOfTransport":"","postCode":"360004","name":"Diya Ghanshyambhai Vekariya","std":"Jr.KgB","address":"2-Sardar nagar, Sardar nagar soc Community hall, Mavdi plot","__v":0},{"_id":{"$oid":"5e170c59c27aa15cda0a1eb7"},"modeOfTransport":"","postCode":"360005","name":"Heer Amit Kalaria","std":"Jr.KgA","address":"Trilok Appt., C-17, 1st Floor, 2-Ravi Ratna Park, 150 feet ring road","__v":0},{"_id":{"$oid":"5e170c59c27aa15cda0a1eb8"},"modeOfTransport":"","postCode":"360004","name":"Aarohi Dhavalbhai Viramgama","std":"Jr.KgA","address":"F-404, Shantivan Param, Ambika Town ship, Near RPS School, Mavdi","__v":0},{"_id":{"$oid":"5e170c59c27aa15cda0a1eb9"},"modeOfTransport":"","postCode":"360005","name":"Pavitra Hirenbhai Thummar","std":"Jr.KgB","address":"B-75, Ajanta park, Sadhu vaswani road","__v":0},{"_id":{"$oid":"5e170c59c27aa15cda0a1eba"},"modeOfTransport":"","postCode":"360005","name":"Pahal Ashokbhai Savaliya","std":"Jr.KgA","address":"B-C/50, Alap Avanue, Near Pushkardham, University road","__v":0},{"_id":{"$oid":"5e170c59c27aa15cda0a1ebb"},"modeOfTransport":"","postCode":"360005","name":"Khanak Rohit Kariya","std":"Jr.KgB","address":"Palmcity Appt., A-501, Sadhuvaswani road","__v":0},{"_id":{"$oid":"5e170c59c27aa15cda0a1ebc"},"modeOfTransport":"","postCode":"360005","name":"Anaya Sandip Koradia","std":"Jr.KgA","address":"Siddharth Golf Appt., Near Geetanjali College, Block no. 401","__v":0},{"_id":{"$oid":"5e170c59c27aa15cda0a1ebd"},"modeOfTransport":"","postCode":" ","name":"Aditi Dharmeshbhai Raiyani","std":"Jr.KgB","address":"1 Geetajali park, Street 6, Gayatri main road, B/h. Anand nagar colony","__v":0},{"_id":{"$oid":"5e170c59c27aa15cda0a1ebe"},"modeOfTransport":"","postCode":"360007","name":"Myraa Manishbhai Tejani","std":"Jr.KgC","address":"Dream city, B-C1/201, Raiya hill, B/h. Alap green city","__v":0},{"_id":{"$oid":"5e170c59c27aa15cda0a1ebf"},"modeOfTransport":"","postCode":"360005","name":"Maitri Devang Trivedi","std":"Jr.KgA","address":"\"Jeevan Amrit\", ashopalav park, Street no 2, Opp. Palm city Near Patidar chowk, Sadhu vaswani road","__v":0},{"_id":{"$oid":"5e170c59c27aa15cda0a1ec0"},"modeOfTransport":"","postCode":"360005","name":"Pari Vishalkumar Ponkiya","std":"Jr.KgB","address":"\"Gagan Appt.\", 7 floor, 68 Balmukud plot, 1 saurashtra kala kendra, Nirmala road","__v":0},{"_id":{"$oid":"5e170c59c27aa15cda0a1ec1"},"modeOfTransport":"","postCode":"360004","name":"Riree Avanish Patel","std":"Jr.KgB","address":"\"Saubhagya\", Vaishali nagar, street no 6, Opp. Amrapali parti plot","__v":0},{"_id":{"$oid":"5e170c59c27aa15cda0a1ec2"},"modeOfTransport":"","postCode":"360005","name":"Drishi Dharmeshbhai Patel","std":"Jr.KgA","address":"\"Bahuchar Krupa\", 4-Gunatit nagar, B/h. Raiya telephone exchange, 150 feet ring road","__v":0},{"_id":{"$oid":"5e170c59c27aa15cda0a1ec3"},"modeOfTransport":"","postCode":"360005","name":"Kavyshreeba Kuldeepsinh Jadeja","std":"Sr.KgA","address":"\"Vasant Smruti\", B-23, Parijat residency, Sadhu vaswani road","__v":0},{"_id":{"$oid":"5e170c59c27aa15cda0a1ec4"},"modeOfTransport":"","postCode":"360001","name":"Nandani Bhavinbhai Tilala","std":"Sr.KgB","address":"\"Dharmesh\", 4-Naval nagar, Mavdi main road","__v":0},{"_id":{"$oid":"5e170c59c27aa15cda0a1ec5"},"modeOfTransport":"","postCode":"360005","name":"Angel Kalpeshbhai Kanani","std":"Sr.KgB","address":"Shyamal Vatika, Block no. 501(H)","__v":0},{"_id":{"$oid":"5e170c59c27aa15cda0a1ec6"},"modeOfTransport":"","postCode":"360022","name":"Dhruvi Chiragbhai Parsana","std":"Sr.KgD","address":"\"Atulya\", Madhav redidancy-A, Street 2, B-12, Kothariya main road, Near Swati park","__v":0},{"_id":{"$oid":"5e170c59c27aa15cda0a1ec7"},"modeOfTransport":"","postCode":"360005","name":"Diya  Dipeshbhai Dave","std":"Sr.KgC","address":"C-402, Shyamal Veritix, Sadhu Vaswani road, Off., University road","__v":0},{"_id":{"$oid":"5e170c59c27aa15cda0a1ec8"},"modeOfTransport":"","postCode":"360005","name":"Hetvi Vasubhai Papaniya","std":"Sr.KgD","address":"B-12/17, Govt. C- 108 Quarter, Aakashwani chowk","__v":0},{"_id":{"$oid":"5e170c59c27aa15cda0a1ec9"},"modeOfTransport":"","postCode":"360004","name":"Dwija Rinalbhai Vekariya","std":"Jr.KgB","address":"2 Sardar nagar, Mavdi plot, Near Sardar nagar Community hall","__v":0},{"_id":{"$oid":"5e170c59c27aa15cda0a1eca"},"modeOfTransport":"","postCode":"360007","name":"Devyani Bhaveshbhai Visodiya","std":"Sr.KgA","address":"Oscar Green city block no 232 opp tulsi market raiya road","__v":0},{"_id":{"$oid":"5e170c59c27aa15cda0a1ecb"},"modeOfTransport":"","postCode":"360007","name":"Rahi Harshadbhai Kavathiya","std":"Sr.KgC","address":"D 503 sopan habitata near nand village sadhuvaswani road ","__v":0},{"_id":{"$oid":"5e170c59c27aa15cda0a1ecc"},"modeOfTransport":"","postCode":"360002","name":"Khushi Pareshbhai Gadhiya","std":"Jr.KgA","address":"4 Ram park kotahriya road","__v":0},{"_id":{"$oid":"5e170c59c27aa15cda0a1ecd"},"modeOfTransport":"","postCode":"360005","name":"Aarya Amitsingh Bhadauria","std":"NurA","address":"\"Utkarsh\", 2-Nilkanth nagar, Panchayat Chowk","__v":0},{"_id":{"$oid":"5e170c59c27aa15cda0a1ece"},"modeOfTransport":"Parent","postCode":"360006","name":"Jeeya Sunilbhai Sardhara","std":"NurA","address":"Flat no A 1/4 Sadhuvaswani road Gangotri dairy farm","__v":0},{"_id":{"$oid":"5e170c59c27aa15cda0a1ecf"},"modeOfTransport":"","postCode":"360005","name":"Heeva  Akshay Kaneriya","std":"NurA","address":"103 Swapna shrushti appt jalaram 2 jagdishan marg","__v":0},{"_id":{"$oid":"5e170c59c27aa15cda0a1ed0"},"modeOfTransport":"","postCode":"360005","name":"Foram Pareshbhai Javiya","std":"NurA","address":"Siddivinayak appartment seccond floor 202 sadhuvaswani road ","__v":0},{"_id":{"$oid":"5e170c59c27aa15cda0a1ed1"},"modeOfTransport":"","postCode":"360007","name":"Dhyara Bhavesh Dobariya","std":"Jr.KgA","address":"Hetbhav 2 Santosh Park Near Oscar Residency behind Meera Nagar Raiya road","__v":0},{"_id":{"$oid":"5e170c59c27aa15cda0a1ed2"},"modeOfTransport":"","postCode":"360005","name":"Dwity Jayeshbhai Panara","std":"Jr.KgC","address":"Sayam Nilkant nagar main road opp kanya Chhatralay street university road ","__v":0},{"_id":{"$oid":"5e170c59c27aa15cda0a1ed3"},"modeOfTransport":"","postCode":"360005","name":"Khushi Vipulbhai  Raval","std":"Jr.KgA","address":"Yogi bhuvan diamond bunglows jalaraam plot university road ","__v":0},{"_id":{"$oid":"5e170c59c27aa15cda0a1ed4"},"modeOfTransport":"","postCode":"360005","name":"Aarohi Hirenbhai Popat","std":"NurA","address":"A 904 Behind Aalap green city   dream ccity raiya dhar","__v":0},{"_id":{"$oid":"5e170c59c27aa15cda0a1ed5"},"modeOfTransport":"","postCode":"360001","name":"Mishka Digvijaysinh Vaghela","std":"Sr.KgB","address":"Block no 8 We 88 bunglows near SRP Camp Vardhman Nagar near ring road","__v":0},{"_id":{"$oid":"5e170c59c27aa15cda0a1ed6"},"modeOfTransport":"","postCode":"360005","name":"Kunj  Vishal Nathwani","std":"Sr.KgC","address":"Maa Kailash dhara park street no 2 behind alapgreen city raiya road ","__v":0},{"_id":{"$oid":"5e170e5cc5de2a5ee2e75353"},"modeOfTransport":"Mode of Transport","postCode":"PostCode","name":"Full Name","std":"ClassSection","address":"Home Address","__v":0},{"_id":{"$oid":"5e170e5cc5de2a5ee2e75354"},"modeOfTransport":"Van","postCode":"360005","name":"Amana Mahmadfaruk Ajab","std":"9A","address":"Qtr No152 G.H.B Upvan, Kankot Road, Opp Isckon Temple, Off Kalawad Road","__v":0},{"_id":{"$oid":"5e170e5cc5de2a5ee2e75355"},"modeOfTransport":"Van","postCode":"360005","name":"Visha Atulbhai Javia","std":"9A","address":"2 Keshav Complex, Nilkanthnagar Main Road, Opp Patel Kanya Chhatralaya,  Panchyat chowk University Road ","__v":0},{"_id":{"$oid":"5e170e5cc5de2a5ee2e75356"},"modeOfTransport":"Van","postCode":"360005","name":"Khushi Hemanshu Lodhiya","std":"9A","address":"C1103 Vasant Marvel, Vimal Nagar Main Road, Near Saurashtra University Gate No-2","__v":0},{"_id":{"$oid":"5e170e5cc5de2a5ee2e75357"},"modeOfTransport":"Parents","postCode":"360002","name":"Akshada Nikesh Shah","std":"9A","address":"\"Navkar\" Plot No-160, Ruda Nagar-1, Vrundavan Society Main Road, Kalawad Road","__v":0},{"_id":{"$oid":"5e170e5cc5de2a5ee2e75358"},"modeOfTransport":"Van","postCode":"360005","name":"Srushti Rajubhai Dangar","std":"10A","address":"\"Sagar\" Bhomeshwar Society Main Road, B/H Press Colony, Jamnagar Road","__v":0},{"_id":{"$oid":"5e170e5cc5de2a5ee2e75359"},"modeOfTransport":"Van","postCode":"360005","name":"Simran Rafikbhai Jivani","std":"10A","address":"B-206 Gulshan Park-1, Opp-Vima Hospital, Dudh Sagar Road ","__v":0},{"_id":{"$oid":"5e170e5cc5de2a5ee2e7535a"},"modeOfTransport":"Van","postCode":"360005","name":"Mahek Amitbhai Parikh","std":"10A","address":"71/101 Race Course Park, Near Airport Road","__v":0},{"_id":{"$oid":"5e170e5cc5de2a5ee2e7535b"},"modeOfTransport":"Parents","postCode":"360001","name":"Prisha Bhaveshbhai Kalola","std":"8A","address":"\"Devalay\" B-201, Jalaram-3, Nr. Michi's Restaurent, Indira Circle, University Road","__v":0},{"_id":{"$oid":"5e170e5cc5de2a5ee2e7535c"},"modeOfTransport":"Van","postCode":"360002","name":"Yesha Amitkumar Kubavat","std":"9A","address":"Amar Nivas 14/4 Bhaktinagar, Opp. Avantibhai Lodhi Bhavan","__v":0},{"_id":{"$oid":"5e170e5cc5de2a5ee2e7535d"},"modeOfTransport":"Van","postCode":"360005","name":"Jahnvi Bhavesh Manwar","std":"8A","address":"904- Raj Palace, Sadhu Vasvani Road","__v":0},{"_id":{"$oid":"5e170e5cc5de2a5ee2e7535e"},"modeOfTransport":"Van","postCode":"360005","name":"Hima Nileshbhai Zalavadia","std":"8A","address":"131-132 Nand Vihar Opp. Dhanajay Marble, Beside Sun City, Sadhu Vaswani Road","__v":0},{"_id":{"$oid":"5e170e5cc5de2a5ee2e7535f"},"modeOfTransport":"Van","postCode":"360002","name":"Pal Rohit Tilva","std":"9A","address":" A-902, Havlok Tower,Near Pradhyuman Park Green city club , Nana Mava Main Road","__v":0},{"_id":{"$oid":"5e170e5cc5de2a5ee2e75360"},"modeOfTransport":"Van","postCode":"360001","name":"Pooja Harish Ravat","std":"9A","address":"\"Yogeshvar Krupa\" Kailash Park  Main Road, Opp. Konark Flat, Raiya Road","__v":0},{"_id":{"$oid":"5e170e5cc5de2a5ee2e75361"},"modeOfTransport":"Van","postCode":"360002","name":"Devanshi Paresh Shah","std":"10A","address":"\"Gomti Krupa\" 2-New College Wadi, Opp. G.T.Sheth School B/H Panjab Honda, Kalawad Roa","__v":0},{"_id":{"$oid":"5e170e5cc5de2a5ee2e75362"},"modeOfTransport":"Van","postCode":"360005","name":"Virali Jitendrabhai Viradia","std":"10A","address":"SHREE KHODAL Sardar Nagar Poonam Society Street No 2","__v":0},{"_id":{"$oid":"5e170e5cc5de2a5ee2e75363"},"modeOfTransport":"Parents","postCode":"360005","name":"Gopi Manishbhai Gadara","std":"8A","address":"401 Angan Apartment, Vimal Nagar, B/H Alap Avenue, University Road","__v":0},{"_id":{"$oid":"5e170e5cc5de2a5ee2e75364"},"modeOfTransport":"Parents","postCode":"360005","name":"Rutvi Maheshbhai Boda","std":"9A","address":"Satelite Park Block No-14, Near Patidar Chowk, Sadhu Vasvani Road","__v":0},{"_id":{"$oid":"5e170e5cc5de2a5ee2e75365"},"modeOfTransport":"Van","postCode":"360002","name":"Hency Bhaveshbhai Dudhatra","std":"7A","address":"\"Matru Krupa\"3-Poonam Society, Nr. Patel Boarding, 150 Ft Ring Road","__v":0},{"_id":{"$oid":"5e170e5cc5de2a5ee2e75366"},"modeOfTransport":"Van","postCode":"360005","name":"Yashvi Ajaybhai Ramani","std":"7A","address":"\"Ajay\", 1 Gulab Nagar, 9 Master Society Corner, 80 Ft Road","__v":0},{"_id":{"$oid":"5e170e5cc5de2a5ee2e75367"},"modeOfTransport":"Van","postCode":"360005","name":"Bhavya Nikeshkumar Kalaria","std":"9A","address":"A 503 Rose The Garden city Sadhuvaswani Road University Road","__v":0},{"_id":{"$oid":"5e170e5cc5de2a5ee2e75368"},"modeOfTransport":"Van","postCode":"360002","name":"Mansi Pankajbhai Dudhatra","std":"9A","address":"Poonam SocietyStreet No 3, Nr. Patel Boarding, 150 Ft Ring Road","__v":0},{"_id":{"$oid":"5e170e5cc5de2a5ee2e75369"},"modeOfTransport":"Van","postCode":"360001","name":"Sanvi Paragbhai Vaghasiya","std":"9A","address":"B 7 Vijay Appt, New Jagnath 22/23 Corner, Mahakali Mandir Road","__v":0},{"_id":{"$oid":"5e170e5cc5de2a5ee2e7536a"},"modeOfTransport":"Van","postCode":"360002","name":"Janki Yogeshbhai Karkar","std":"10A","address":"\"Vinayak\", B/H Aalap Avenue, Vimal Nagar Main Road","__v":0},{"_id":{"$oid":"5e170e5cc5de2a5ee2e7536b"},"modeOfTransport":"Van","postCode":"360005","name":"Arajavi Harshadbhai Kakadiya","std":"7B","address":"Parishram Chitrakut Dham Society, Block No-84, Ioc Qut, Kalawad Road","__v":0},{"_id":{"$oid":"5e170e5cc5de2a5ee2e7536c"},"modeOfTransport":"Van","postCode":"360002","name":"Diya Piyushbhai Sheth","std":"7A","address":"Om jai AMBE mahakam duplex block No 30 yash comlpex gandhigram 150 feet ring road.","__v":0},{"_id":{"$oid":"5e170e5cc5de2a5ee2e7536d"},"modeOfTransport":"Van","postCode":"360002","name":"Elisha Shaileshbhai Vadaliya","std":"7B","address":"Sarita Vihar Society, Block No-8, Nr AG Society, Kalawad Road","__v":0},{"_id":{"$oid":"5e170e5cc5de2a5ee2e7536e"},"modeOfTransport":"Van","postCode":"360002","name":"Harleen Bhavin Raval","std":"7A","address":"Aalap Green City A-97 Raiya Road","__v":0},{"_id":{"$oid":"5e170e5cc5de2a5ee2e7536f"},"modeOfTransport":"Van","postCode":"360005","name":"Nandani Himanshubhai Vadalia","std":"7B","address":"128, Gokuldham Society, Gokuldham Main Road, Krishna Nagar Main Road","__v":0},{"_id":{"$oid":"5e170e5cc5de2a5ee2e75370"},"modeOfTransport":"Van","postCode":"360005","name":"Vedanti Jayesh Rajvir","std":"7B","address":"Ravi Park, Street-9, Block-90/2 ,Near A G South Kalawad Road","__v":0},{"_id":{"$oid":"5e170e5cc5de2a5ee2e75371"},"modeOfTransport":"Van","postCode":"360005","name":"Shreena Rakeshbhai Donga","std":"7A","address":"Pratham Appt.2, Shiv Aaradhna Soc. Street No. 6, Satya Sai Heart Hospital Road","__v":0},{"_id":{"$oid":"5e170e5cc5de2a5ee2e75372"},"modeOfTransport":"Parents","postCode":"360002","name":"Tisha Paragbhai Rughani","std":"7A","address":"\"Alkesh\", Tulsi Park Street No. 2, Nr. Telephone Exchange, Raiya Road.","__v":0},{"_id":{"$oid":"5e170e5cc5de2a5ee2e75373"},"modeOfTransport":"Van","postCode":"360005","name":"Aachal Hiteshbhai Dudhatra","std":"6B","address":"MATRU KRUPA 3- Poonam Society, Nr. Patel Boarding, 150 Ft Ring Road","__v":0},{"_id":{"$oid":"5e170e5cc5de2a5ee2e75374"},"modeOfTransport":"Van","postCode":"360005","name":"Aastha Devendra Trivedi","std":"6A","address":"A-11, Green Avenue, Near Prashil Park, University Road","__v":0},{"_id":{"$oid":"5e170e5cc5de2a5ee2e75375"},"modeOfTransport":"Van","postCode":"360005","name":"Bansari Kamleshbhai Amrutiya","std":"6B","address":"Nandanvan Society, Block No 43/6 Nr. Panchayat Nagar, Nr. Sura House, University Road","__v":0},{"_id":{"$oid":"5e170e5cc5de2a5ee2e75376"},"modeOfTransport":"Van","postCode":"360002","name":"Bhagvatiba Dharmendrasinh Jadeja","std":"6B","address":"Guru Krupa Plot No 35 Street No 5 Yogi Nagar 150 Feet Ring Road.","__v":0},{"_id":{"$oid":"5e170e5cc5de2a5ee2e75377"},"modeOfTransport":"Parents","postCode":"360002","name":"Devshree Samirbhai Goradiya","std":"6A","address":"\"Shree Krushnashray\" 2- Sakhiya Nagar, Airport Road","__v":0},{"_id":{"$oid":"5e170e5cc5de2a5ee2e75378"},"modeOfTransport":"Van","postCode":"360005","name":"Dhanvi Manishkumar Pansuriya","std":"6B","address":"Surya Park D-9, Nr. Ganga Hall Amin Marg","__v":0},{"_id":{"$oid":"5e170e5cc5de2a5ee2e75379"},"modeOfTransport":"Van","postCode":"360005","name":"Dixita Udaybhai Vegda","std":"  ","address":"Near Mama Saheb Mandir, Jagannathji Krupa, Street -1, Ganesh Park, Raiya Road","__v":0},{"_id":{"$oid":"5e170e5cc5de2a5ee2e7537a"},"modeOfTransport":"Van","postCode":"360005","name":"Drashti Vikaskumar Kalola","std":"6B","address":"B1 552 Nand Gauva Sadhu Vaswani Road.","__v":0},{"_id":{"$oid":"5e170e5cc5de2a5ee2e7537b"},"modeOfTransport":"Van","postCode":"360002","name":"Durva Maulik Kagathara","std":"6A","address":"\"Madhav\", Narmada Park-2, Vidyakunj Society Main Road, Near Amin Marg","__v":0},{"_id":{"$oid":"5e170e5cc5de2a5ee2e7537c"},"modeOfTransport":"Van","postCode":"360005","name":"Heny Kalpeshbhai Bhuva","std":"6A","address":"702, Rajdhani Appt., Opp. Puskardham, University Road","__v":0},{"_id":{"$oid":"5e170e5cc5de2a5ee2e7537d"},"modeOfTransport":"Van","postCode":"360002","name":"Ishita Sureshbhai Rabadiya","std":"6B","address":"\"Shree Yamuna Krupa\"Shree Raj Residency Society, Street No.2, B/H Rajsinagar Party Plot, 150 Feet Ring Road","__v":0},{"_id":{"$oid":"5e170e5cc5de2a5ee2e7537e"},"modeOfTransport":"Parents","postCode":"360005","name":"Krishaba Dharmendrasinh Vaghela","std":"6A","address":"\"Shree Vagheshwari Krupa\", Vishnu Vihar Society, Nr Ruda-2, Plot No-45, ","__v":0},{"_id":{"$oid":"5e170e5cc5de2a5ee2e7537f"},"modeOfTransport":"Van","postCode":"360002","name":"Kriya Manojbhai Sanyja","std":"6A","address":"Utsav Park-2, \"Kriya\", B-79, Sadhuwasvani Road","__v":0},{"_id":{"$oid":"5e170e5cc5de2a5ee2e75380"},"modeOfTransport":"Van","postCode":"360002","name":"Maitri Vimalbhai Vasani","std":"6A","address":"B-28 Shastri Nagar (Agmera), Nana Mava Road","__v":0},{"_id":{"$oid":"5e170e5cc5de2a5ee2e75381"},"modeOfTransport":"Parents","postCode":"360005","name":"Manushi Tuljashankar Shrimali","std":"6B","address":"B No-201 Prasheel Park Near Saurastra University","__v":0},{"_id":{"$oid":"5e170e5cc5de2a5ee2e75382"},"modeOfTransport":"Van","postCode":"360002","name":"Mitalba Pratapsinh Zala","std":"6A","address":"Block No 97/D, 1 \"Gurukrupa\" Gayatri Dham Society, Jamnagar Road","__v":0},{"_id":{"$oid":"5e170e5cc5de2a5ee2e75383"},"modeOfTransport":"Van","postCode":"360005","name":"Nehal Ajeet Moodhotiya","std":"6B","address":"A.G.Staff Qauters, 14/107, Univeristy Road","__v":0},{"_id":{"$oid":"5e170e5cc5de2a5ee2e75384"},"modeOfTransport":"Van","postCode":"360001","name":"Pratvi Mukeshbhai Hapaliya","std":"6A","address":"\"Shree Vallabh\", Vishvanagar - 6, Mavadi Road","__v":0},{"_id":{"$oid":"5e170e5cc5de2a5ee2e75385"},"modeOfTransport":"Van","postCode":"360005","name":"Swara Viren Kalariya","std":"6B","address":"\"Viren\", Balaji Park-12, Nr Dhuleshiya Girl'S Hostel, University Road","__v":0},{"_id":{"$oid":"5e170e5cc5de2a5ee2e75386"},"modeOfTransport":"Van","postCode":"360001","name":"Swati Prashant Dave","std":"6B","address":"\"Prashant\" Ruda Nagar-2, Plot No-138, Kalawad Road","__v":0},{"_id":{"$oid":"5e170e5cc5de2a5ee2e75387"},"modeOfTransport":"Van","postCode":"360001","name":"Harshi Hirenbhai Jasani","std":"6B","address":"Silver Avenu Society, St-5, PlotNo-25 Bh/Parimal School","__v":0},{"_id":{"$oid":"5e170e5cc5de2a5ee2e75388"},"modeOfTransport":"Parents","postCode":"360001","name":"Heer Shekharsinh Gadhavi","std":"6A","address":"\"Sonal Krupa \", Block No - 29, Chitrakut Dham,  B/H IOC. Quarters, Kalawad Road","__v":0},{"_id":{"$oid":"5e170e5cc5de2a5ee2e75389"},"modeOfTransport":"Van","postCode":"360005","name":"Krishaba Hirendrasinh Padhiyar","std":"6B","address":"Block No -101 Tirthraj appt 6 Royal park near university road indira circle  .","__v":0},{"_id":{"$oid":"5e170e5cc5de2a5ee2e7538a"},"modeOfTransport":"Van","postCode":"360002","name":"Mahi Navinbhai Tanna","std":"6B","address":"\"Saligarm\"3-Kailash Wadi, Nr Jam Tower, Juction Road","__v":0},{"_id":{"$oid":"5e170e5cc5de2a5ee2e7538b"},"modeOfTransport":"Van","postCode":"360004","name":"Nandani Rambhai Kacha","std":"6B","address":"Punit Society Main Road Nr, Nilkanth Cinema, Kothariya \"Gopinath\" Gayatri Nagar Main Road, Street No-2, \"Jayshree Sonalma Krupa\"Nr.Bhakti Nagar","__v":0},{"_id":{"$oid":"5e170e5cc5de2a5ee2e7538c"},"modeOfTransport":"Van","postCode":"360005","name":"Nirja Atulbhai Gajera","std":"6A","address":"Shreenathji\" Bl No-173, St No-4 Jankpuri Soc, Sadhuvasvani Road","__v":0},{"_id":{"$oid":"5e170e5cc5de2a5ee2e7538d"},"modeOfTransport":"Van","postCode":"360004","name":"Palak Hasmukhbhai Raichura","std":"  ","address":"\"Sahaj\", Chetrakutdham St. No. -1, Nr. Akshar Marg,","__v":0},{"_id":{"$oid":"5e170e5cc5de2a5ee2e7538e"},"modeOfTransport":"Van","postCode":"360005","name":"Sharva Biren Lunagariya","std":"6A","address":"Mangalm Park \"Aarav\" Opp SNK School University Road","__v":0},{"_id":{"$oid":"5e170e5cc5de2a5ee2e7538f"},"modeOfTransport":"Van","postCode":"360005","name":"Zaara Zuberkhan Babi","std":"6B","address":"Al - Mahfuz', 7- Subhas Nagar, B/H Amrapali Cinema, Haweli Street, Rajya Road","__v":0},{"_id":{"$oid":"5e170e5cc5de2a5ee2e75390"},"modeOfTransport":"Parents","postCode":"360005","name":"Chandani Chandreshbhai Soni","std":"7B","address":"J K Park Klptru Appt BNo-301B/Halap Green City, Raiya Road","__v":0},{"_id":{"$oid":"5e170e5cc5de2a5ee2e75391"},"modeOfTransport":"Van","postCode":"360004","name":"Hetanshi Jiteshbhai Ghodasara","std":"8A","address":"D 304 Shantivan Parishar Ambica Township","__v":0},{"_id":{"$oid":"5e170e5cc5de2a5ee2e75392"},"modeOfTransport":"Van","postCode":"360004","name":"Pari Rohitbhai Jain","std":"8A","address":"Ayodhya Park Gruh Mandir. A -Aring Flat No- 301, 150Ft Ring Rd","__v":0},{"_id":{"$oid":"5e170e5cc5de2a5ee2e75393"},"modeOfTransport":"Van","postCode":"360005","name":"Keena Manojbhai Kundaliya","std":"8A","address":"Block No-139, Sarita Vihar Society, University Road","__v":0},{"_id":{"$oid":"5e170e5cc5de2a5ee2e75394"},"modeOfTransport":"Van","postCode":"360001","name":"Vinisha Atulbhai Makadia","std":"9A","address":"803-Sun Star Appt. Ghanshyam Nagar -2, B/H Crystal Mall Kalawad Road","__v":0},{"_id":{"$oid":"5e170e5cc5de2a5ee2e75395"},"modeOfTransport":"Van","postCode":"360004","name":"Tanisha Chandreshbhai Kyada","std":"10A","address":"\"Nandavan\" , 1-Geeta Nagar,BhaktiNagar Circle  B/H Gurukul ","__v":0},{"_id":{"$oid":"5e170e5cc5de2a5ee2e75396"},"modeOfTransport":"Van","postCode":"360001","name":"Pari Saket Kalavadia","std":"8A","address":"A 1003 King Heights, Vijya Kunj Society Main Road, Nr.Amin Marg","__v":0},{"_id":{"$oid":"5e170e5cc5de2a5ee2e75397"},"modeOfTransport":"Van","postCode":"360008","name":"Aditi Rajendrabhai Rank","std":"5A","address":"\"Shyam\", Aryanagar Society, Opp Tulsi Pan, Pedak Main Road","__v":0},{"_id":{"$oid":"5e170e5cc5de2a5ee2e75398"},"modeOfTransport":"Van","postCode":"360001","name":"Devyani Jaydev Gadhvi","std":"5B","address":"\"Ganesh Krupa\" Maheshwari -1, Kothariya Road","__v":0},{"_id":{"$oid":"5e170e5cc5de2a5ee2e75399"},"modeOfTransport":"Van","postCode":"360004","name":"Dharmiben Sureshbhai Thesiya","std":"5A","address":"\"Pranam\", 39/A Sanidhya Bunglows, 150Ft Ring Road ","__v":0},{"_id":{"$oid":"5e170e5cc5de2a5ee2e7539a"},"modeOfTransport":"Van","postCode":"360001","name":"Dhrumi Tushar Antala","std":"5A","address":"Block-11, Ghanshyam Nagar West, Behind I.O.C Quarters, Kalawad Road","__v":0},{"_id":{"$oid":"5e170e5cc5de2a5ee2e7539b"},"modeOfTransport":"Van","postCode":"360005","name":"Feny Paresh Javiya","std":"5B","address":"B-202 Siddhivinayak Flat, Sadhu Vasvani Road","__v":0},{"_id":{"$oid":"5e170e5cc5de2a5ee2e7539c"},"modeOfTransport":"Van","postCode":"360001","name":"Heer Yatinbhai Bhojani","std":"5A","address":"Sunstar Appt, 301/2, Ghansyam Nagar, B/H Crystal Mall, Kalawad Road","__v":0},{"_id":{"$oid":"5e170e5cc5de2a5ee2e7539d"},"modeOfTransport":"Van","postCode":"360005","name":"Hetvi Bhaveshbhai Kanani","std":"5B","address":"Nandvihar Flat B-113, 1st Wing, Opp Dhananjay Marble, Sadhu Vaswani Road","__v":0},{"_id":{"$oid":"5e170e5cc5de2a5ee2e7539e"},"modeOfTransport":"Van","postCode":"360008","name":"Hetvi Rashminbhai Khakhi","std":"5A","address":"3/5 College Wadi, Opp. B.B. House, Near Khadhiyawar Gymkhana","__v":0},{"_id":{"$oid":"5e170e5cc5de2a5ee2e7539f"},"modeOfTransport":"Van","postCode":"360005","name":"Khushi Pareshbhai Baraiya","std":"5B","address":"\"Suryakoti\" B-131, Kevalam Residency, Pushkar Dham Main Road","__v":0},{"_id":{"$oid":"5e170e5cc5de2a5ee2e753a0"},"modeOfTransport":"Van","postCode":"360004","name":"Khushiba Girirajsinh Jadeja","std":"5A","address":"11-Bhakti Dham Appt, Bhakti Dham Society, Street No-2, 150 Ring Road, Opp Big Bazar","__v":0},{"_id":{"$oid":"5e170e5cc5de2a5ee2e753a1"},"modeOfTransport":"Van","postCode":"360008","name":"Hiya Jigar Mehta","std":"5A","address":"C-403, Royal Homes, Shanti Nagar 1, Nr Nageshwar Jain Temple, Ghanteshwar, Madhapar","__v":0},{"_id":{"$oid":"5e170e5cc5de2a5ee2e753a2"},"modeOfTransport":"Van","postCode":"360004","name":"Honey Vishalbhai Kakasaniya","std":"5A","address":"AA-20, Oscar Residency, B/H Sterling Hospital, Nr.Laxmi Residency, 150Ft Ring Road","__v":0},{"_id":{"$oid":"5e170e5cc5de2a5ee2e753a3"},"modeOfTransport":"Van","postCode":"360001","name":"Jiya Arjanbhai Parmar","std":"5A","address":"\"Prabhu Krupa\" Shakti Nagar-3B, Nr. New Parimal School, Kalawad Road","__v":0},{"_id":{"$oid":"5e170e5cc5de2a5ee2e753a4"},"modeOfTransport":"Van","postCode":"360005","name":"Jiya Sejalkumar Tilala","std":"5B","address":"PIYOO 1/7 Bombay Housing Society University Road.","__v":0},{"_id":{"$oid":"5e170e5cc5de2a5ee2e753a5"},"modeOfTransport":"Van","postCode":"360004","name":"Lincyben Sanjaybhai Lumbhani","std":"5B","address":"\"Bhoomi\" Plot No. 70 B, Parnakuti Society 6, Nana Mava Road","__v":0},{"_id":{"$oid":"5e170e5cc5de2a5ee2e753a6"},"modeOfTransport":"Van","postCode":"360005","name":"Liza Pankaj Sakhiya","std":"5B","address":"\"Mohit\" 105, Parimal Society, B/H Aakashwani Quarters, University Road","__v":0},{"_id":{"$oid":"5e170e5cc5de2a5ee2e753a7"},"modeOfTransport":"Van","postCode":"360007","name":"Meera Viren Chauhan","std":"5B","address":"\"Daya\", 14 Parsana Nagar, Jamnagar Road","__v":0},{"_id":{"$oid":"5e170e5cc5de2a5ee2e753a8"},"modeOfTransport":"Van","postCode":"360005","name":"Nidhi Riddhish Gediya","std":"5B","address":"\"Shree Kuldev Krupa\" , 24-Prashil Park, Nr.Saurashtra University","__v":0},{"_id":{"$oid":"5e170e5cc5de2a5ee2e753a9"},"modeOfTransport":"Van","postCode":"360005","name":"Nupur Riddhish Gediya","std":"5A","address":"\"Shree Kuldevi Krupa\" , 24-Prashil Park, Nr.Saurashtra University","__v":0},{"_id":{"$oid":"5e170e5cc5de2a5ee2e753aa"},"modeOfTransport":"Van","postCode":"360005","name":"Pragatiba Hitendrasinh Jadeja","std":"5A","address":"\"Dev Pushpa\" Ruda-2, Street No-1, University Road","__v":0},{"_id":{"$oid":"5e170e5cc5de2a5ee2e753ab"},"modeOfTransport":"Van","postCode":"360005","name":"Pari Hemantbhai Sakhiya","std":"5B","address":"\"Pari\", B-F/02 Ravi Ratna Park, Street No-5, University Road","__v":0},{"_id":{"$oid":"5e170e5cc5de2a5ee2e753ac"},"modeOfTransport":"Van","postCode":"360005","name":"Princy Maheshbhai Thakkar","std":"5A","address":"97 Arshiwad, Shiv Sangam Society, 150 Ft Ring Road","__v":0},{"_id":{"$oid":"5e170e5cc5de2a5ee2e753ad"},"modeOfTransport":"Van","postCode":"360004","name":"Rajvi Rushabhbhai Shah","std":"5B","address":"5/203, Mahavir Residency, Nr.Madhapar Chowkdi, Opp Jay Somnath Petrol Pump, Jamnagar Road","__v":0},{"_id":{"$oid":"5e170e5cc5de2a5ee2e753ae"},"modeOfTransport":"Parents","postCode":"360005","name":"Riya Ketanbhai Bhalani","std":"5A","address":"Block No 244 Nand Bhoomi Appt opp T NRAO College University Road","__v":0},{"_id":{"$oid":"5e170e5cc5de2a5ee2e753af"},"modeOfTransport":"Van","postCode":"360004","name":"Tvisha Pareshbhai Sapovadiya","std":"5B","address":"Hari Om Flats Block No 301 150 feet ring road.","__v":0},{"_id":{"$oid":"5e170e5cc5de2a5ee2e753b0"},"modeOfTransport":"Van","postCode":"360003","name":"Vrunda Kuldeepsinh Parmar","std":"5A","address":"\"Pravin Kunj\" 4-Poojara Plot, Nr. Bhakti Nagar Society","__v":0},{"_id":{"$oid":"5e170e5cc5de2a5ee2e753b1"},"modeOfTransport":"Van","postCode":"360004","name":"Vrushti Rameshbhai Kotadia","std":"5A","address":"Chitanya Bunglows, Parivar Residency, B-101, B/H Big Bazar, Satya Sai Road","__v":0},{"_id":{"$oid":"5e170e5cc5de2a5ee2e753b2"},"modeOfTransport":"Parents","postCode":"360005","name":"Yatri Darshanbhai Ranbhan","std":"5B","address":"Retreat, 10 Shivaji Park, Raiya Road","__v":0},{"_id":{"$oid":"5e170e5cc5de2a5ee2e753b3"},"modeOfTransport":"Parents","postCode":"360005","name":"Dhwaniben Bhavinbhai Khachar","std":"6A","address":"C404 Aditya Heights, Sadhu Vaswani Road","__v":0},{"_id":{"$oid":"5e170e5cc5de2a5ee2e753b4"},"modeOfTransport":"Van","postCode":"360001","name":"Jahanvi Sureshbhai Shilu","std":"6B","address":"Vimal Nagar 4, \"Rameshwar\" B/H Crystal Mall","__v":0},{"_id":{"$oid":"5e170e5cc5de2a5ee2e753b5"},"modeOfTransport":"Van","postCode":"360005","name":"Mahi Bhaveshbhai Bhadaniya","std":"6A","address":"402, Suparshwanath Appt, 3-Mombasa Avenue Park, B/H Raiya Tele Exchange 150 Ft Ring Road","__v":0},{"_id":{"$oid":"5e170e5cc5de2a5ee2e753b6"},"modeOfTransport":"Van","postCode":"360005","name":"Parisha Dilipbhai Viradiya","std":"6A","address":"\"Shree Krishna Kunj\", Natraj Nagar, Street No-4, University Road","__v":0},{"_id":{"$oid":"5e170e5cc5de2a5ee2e753b7"},"modeOfTransport":"Van","postCode":"360005","name":"Priyani Manishbhai Chokshi","std":"6B","address":"B-102, Tulip Appartment, Nr. Alap Green City, Raiya Road","__v":0},{"_id":{"$oid":"5e170e5cc5de2a5ee2e753b8"},"modeOfTransport":"Van","postCode":"360005","name":"Jainisha Manishbhai Trivedi","std":"7B","address":"\"Laxmi-Narayan\" 2/7 Royal Park, Nr. Indira Circle, University Road","__v":0},{"_id":{"$oid":"5e170e5cc5de2a5ee2e753b9"},"modeOfTransport":"Van","postCode":"360005","name":"Jishna Manishbhai Trivedi","std":"7B","address":"\"Laxmi-Narayan\" 2/7 Royal Park, Nr. Indira Circle University Road","__v":0},{"_id":{"$oid":"5e170e5cc5de2a5ee2e753ba"},"modeOfTransport":"Van","postCode":"360004","name":"Palak Pankajbhai Khachar","std":"7B","address":"Ami Residency E-301, Ambika Township, Nana Mava","__v":0},{"_id":{"$oid":"5e170e5cc5de2a5ee2e753bb"},"modeOfTransport":"Van","postCode":"360005","name":"Radhika Sudhirbhai Rupareliya","std":"7A","address":"401 Sky Condonium, Neel City Club, Nr. Saurashtra University","__v":0},{"_id":{"$oid":"5e170e5cc5de2a5ee2e753bc"},"modeOfTransport":"Parents","postCode":"360001","name":"Sunidhi Sunil Joshi","std":"7B","address":"Race Course Park, Block No. 34, Flat No 301","__v":0},{"_id":{"$oid":"5e170e5cc5de2a5ee2e753bd"},"modeOfTransport":"Parents","postCode":"360005","name":"Shraddha Jitendrabhai Gopani","std":"9A","address":"Flat No 322, Wing 3 Nand Bhoomi Appt. University Road","__v":0},{"_id":{"$oid":"5e170e5cc5de2a5ee2e753be"},"modeOfTransport":"Van","postCode":"360005","name":"Hemaba Dharmendrasinh Jadeja","std":"10A","address":"\"Gayatri Puja\" Neel's Astral Part B, Nr. Neel City Club, University Road","__v":0},{"_id":{"$oid":"5e170e5cc5de2a5ee2e753bf"},"modeOfTransport":"Van","postCode":"360001","name":"Dharmi Pratikbhai Tolia","std":"6B","address":"Aarti Appt., Kashi Vishvanath Plot, Nr. Pradhuman Nagar Police Station","__v":0},{"_id":{"$oid":"5e170e5cc5de2a5ee2e753c0"},"modeOfTransport":"Van","postCode":"360004","name":"Riya Maheshbhai Thakkar","std":"7B","address":"97 Arshiwad, Shiv Sangam Society, 150 Ft Ring Road","__v":0},{"_id":{"$oid":"5e170e5cc5de2a5ee2e753c1"},"modeOfTransport":"Van","postCode":"360004","name":"Devanshi Vipulbhai Javia","std":"10A","address":"101-Pancsheel Appartment, Tirupati Park, B/H Alay Park, Nana Mava Main Road.","__v":0},{"_id":{"$oid":"5e170e5cc5de2a5ee2e753c2"},"modeOfTransport":"Van","postCode":"360004","name":"Yogi Hareshbhai Lavdia","std":"8A","address":"401 Manas APPT BRTS ayodhya chowk 150 FEET RING ROAD.","__v":0},{"_id":{"$oid":"5e170e5cc5de2a5ee2e753c3"},"modeOfTransport":"Van","postCode":"360005","name":"Angel Vishal Godhani","std":"4A","address":"Ashish Vimal Nagar 1 Vimal Nagar Main Road University Road ","__v":0},{"_id":{"$oid":"5e170e5cc5de2a5ee2e753c4"},"modeOfTransport":"Van","postCode":"360005","name":"Angel Manishkumar Thummar","std":"4B","address":"69-YogiNagar, B/H Aakashwani Qtr., University Road","__v":0},{"_id":{"$oid":"5e170e5cc5de2a5ee2e753c5"},"modeOfTransport":"Van","postCode":"360002","name":"Astha Rashmin Sakariya","std":"4A","address":"\"Baba Ramdev\", Rainbow Rcidency, Neharu Nagar Main Road","__v":0},{"_id":{"$oid":"5e170e5cc5de2a5ee2e753c6"},"modeOfTransport":"Van","postCode":"360005","name":"Bhavya Pulkeshibhai Jani","std":"4B","address":"\"Tirth\",264-Janakpuri Soc., University Road","__v":0},{"_id":{"$oid":"5e170e5cc5de2a5ee2e753c7"},"modeOfTransport":"Van","postCode":"360005","name":"Dhanvi Jay Vyas","std":"4A","address":"402 -Manthan Vastu Flat,  8 seedgrow Opp Ruda 2 Near Shyamlal School,University Road","__v":0},{"_id":{"$oid":"5e170e5cc5de2a5ee2e753c8"},"modeOfTransport":"Parents","postCode":"360005","name":"Dharmi Sanjaybhai Jalu","std":"4A","address":"To Munjaka, Behind Saurashtra University","__v":0},{"_id":{"$oid":"5e170e5cc5de2a5ee2e753c9"},"modeOfTransport":"Van","postCode":"360005","name":"Dhruti Santoshbhai Dave","std":"4B","address":"AA-11, Alap Avenue, Opp. Royal Hall, University Road","__v":0},{"_id":{"$oid":"5e170e5cc5de2a5ee2e753ca"},"modeOfTransport":"Van","postCode":"360007","name":"Dhruvika Bharat Sonagara","std":"4B","address":"B/S. \"Shiv\", Rameshwar-2, Street No -5 ","__v":0},{"_id":{"$oid":"5e170e5cc5de2a5ee2e753cb"},"modeOfTransport":"Parents","postCode":"360005","name":"Dhruvisha Nitinbhai Dave","std":"4B","address":"\"Shiv Shakti\", AksharNagar Street No-2, Gandhigram, Amrutdairy Farm","__v":0},{"_id":{"$oid":"5e170e5cc5de2a5ee2e753cc"},"modeOfTransport":"Van","postCode":"360007","name":"Diya Kapilbhai Dholakiya","std":"4B","address":"ShahtriNagar, Stret No-2, Ramapir Temple","__v":0},{"_id":{"$oid":"5e170e5cc5de2a5ee2e753cd"},"modeOfTransport":"Van","postCode":"360005","name":"Eva Nandalal Shekhada","std":"4B","address":"Holiday Regent Appt. , Block No-202, Ravi park-6, B?h\u003e Prem mandir, kalawad Road","__v":0},{"_id":{"$oid":"5e170e5cc5de2a5ee2e753ce"},"modeOfTransport":"Van","postCode":"360001","name":"Harvi Akhil Kotak","std":"4B","address":"\"Diwali Kutir\", 2-Kotak Street, Opp. Rajashri Cinema, Sangava Chowk","__v":0},{"_id":{"$oid":"5e170e5cc5de2a5ee2e753cf"},"modeOfTransport":"Van","postCode":"360005","name":"Hetvi Tarunkumar Solanki","std":"4B","address":"\"Khodiyar Krupa\", Vimal Nagar Street No-1, University Road","__v":0},{"_id":{"$oid":"5e170e5cc5de2a5ee2e753d0"},"modeOfTransport":"Van","postCode":"360002","name":"Hirva Chetanbhai Sagpariya","std":"4A","address":"\"Ram Krupa\", 3-Silver Stone, Opp. Oscar Tower, 150 Feet Ring Road","__v":0},{"_id":{"$oid":"5e170e5cc5de2a5ee2e753d1"},"modeOfTransport":"Van","postCode":"360003","name":"Jhanvi Nareshkumar Kyada","std":"4A","address":"202 Radhe Appartment Opp Backbone Shopping Centre Mayani Chowk Chandreshnagar Road ","__v":0},{"_id":{"$oid":"5e170e5cc5de2a5ee2e753d2"},"modeOfTransport":"Parents","postCode":"360005","name":"Jinal Yogendrabhai Dobariya","std":"4A","address":"Nand Bhoomi Apartment Flat No 414 Opp T N Rao School Near University Campus Road","__v":0},{"_id":{"$oid":"5e170e5cc5de2a5ee2e753d3"},"modeOfTransport":"Parents","postCode":"360005","name":"Keya Ravindrabhai Dobariya","std":"4B","address":"Nand Bhoomi Apartment Flat No 411 Opp T N Rao School Near University Campus Road","__v":0},{"_id":{"$oid":"5e170e5cc5de2a5ee2e753d4"},"modeOfTransport":"Parents","postCode":"360005","name":"Krina Atulgiri Gosai","std":"4A","address":"\"Shri Mahakali Krupa\", 190-Prashil Park, Nr. University Gate","__v":0},{"_id":{"$oid":"5e170e5cc5de2a5ee2e753d5"},"modeOfTransport":"Parents","postCode":"360005","name":"Krisha Atulgiri Gosai","std":"4A","address":"\"Shri Mahakali Krupa\", 190-Prashil Park, Nr. University Gate","__v":0},{"_id":{"$oid":"5e170e5cc5de2a5ee2e753d6"},"modeOfTransport":"Van","postCode":"360005","name":"Liza Sarfaraj Belim","std":"4A","address":"Plot No. 140/B Mochinagar-6, Street No-5, Nr. Gandhigram","__v":0},{"_id":{"$oid":"5e170e5cc5de2a5ee2e753d7"},"modeOfTransport":"Van","postCode":"360005","name":"Mahi Dineshbhai Dangar","std":"  ","address":"Syamal Vihar Society, Satya Sai hospital Road, Kalawad Road","__v":0},{"_id":{"$oid":"5e170e5cc5de2a5ee2e753d8"},"modeOfTransport":"Parents","postCode":"360001","name":"Mishtee Rupeshbhai Cholera","std":"4B","address":"\"Madhuram\" , Shreejinagar-2, Rameshwar Chowk, B/H. Amrapali Talkies","__v":0},{"_id":{"$oid":"5e170e5cc5de2a5ee2e753d9"},"modeOfTransport":"Van","postCode":"360005","name":"Pankti Jayeshbhai Kakadiya","std":"4B","address":"\"Parishram\", Chitrakutdham-84, B/H. Crystal mall, kalawad Road","__v":0},{"_id":{"$oid":"5e170e5cc5de2a5ee2e753da"},"modeOfTransport":"Van","postCode":"360005","name":"Pavitra Rajdeepsinh Vaghela","std":"4A","address":"37-B, \"Indra\", Shraddhadeep Soc. Street-2, B/H. Central School, Kalawad Road","__v":0},{"_id":{"$oid":"5e170e5cc5de2a5ee2e753db"},"modeOfTransport":"Van","postCode":"360005","name":"Prachi Jasminbhai Dedakiya","std":"4B","address":"\"Prachi\", Shiv Aradhana Soc.-1, Satya Sai Road, Nr. \"Aangan\" Restaurant","__v":0},{"_id":{"$oid":"5e170e5cc5de2a5ee2e753dc"},"modeOfTransport":"Van","postCode":"360005","name":"Preya Riteshbhai Kansagara","std":"4B","address":"Flat No:204, Sanjivani-2, Sanjay Vatika, B/H. Prasilpark, Nr. Neel City Club","__v":0},{"_id":{"$oid":"5e170e5cc5de2a5ee2e753dd"},"modeOfTransport":"Parents","postCode":"360005","name":"Prisha Alpesh Khambhayata","std":"4B","address":"Flat No-213, Nandbhoomi Appartment-2, Opp. T.N.Rao College, University Campus","__v":0},{"_id":{"$oid":"5e170e5cc5de2a5ee2e753de"},"modeOfTransport":"Van","postCode":"360005","name":"Pushti Suchit Vyas","std":"4A","address":"101-Raghunath Appt., Shaktinagar 2-B, Nr. Gaytri Mata's Temple, Opp. Aatmiya college kalawad Rd.","__v":0},{"_id":{"$oid":"5e170e5cc5de2a5ee2e753df"},"modeOfTransport":"Parents","postCode":"360005","name":"Rutvi Amitkumar Dedania","std":"4A","address":"Nand gav, Tower-1, Flat No 113, B/H. Vasant-Vihar, Nr. Patidar Chowk, Sadhuvasvani Road","__v":0},{"_id":{"$oid":"5e170e5cc5de2a5ee2e753e0"},"modeOfTransport":"Parents","postCode":"360007","name":"Srushti Paragbhai Tanna","std":"4A","address":"\"Shri Giriraj Krupa\", 2/ Shriji Park, Opp. Rck Park, Mochinagar-6 Gandhigram main Road","__v":0},{"_id":{"$oid":"5e170e5cc5de2a5ee2e753e1"},"modeOfTransport":"Parents","postCode":"360005","name":"Siya Himanshubhai Kotecha","std":"4B","address":"B.No.AA-18, Aalap Avenue Society, opp. Royal Hall, Pushkardham Road, University Road","__v":0},{"_id":{"$oid":"5e170e5cc5de2a5ee2e753e2"},"modeOfTransport":"Van","postCode":"360005","name":"Swara Haritbhai Thaker","std":"4A","address":"\"Harit\", Gulabvihar Pvt. PT. Nr. Big Bazar, 150 FT. Ring Road","__v":0},{"_id":{"$oid":"5e170e5cc5de2a5ee2e753e3"},"modeOfTransport":"Van","postCode":"360004","name":"Vaidi Harshadbhai Kalola","std":"4A","address":"Plot No-86, Tirupati Park-1, B/H. Alay park, Opp. Gandhi School, Nan Mava Road","__v":0},{"_id":{"$oid":"5e170e5cc5de2a5ee2e753e4"},"modeOfTransport":"Van","postCode":"360004","name":"Zeni Renishbhai Amrutiya","std":"4A","address":"\"Shivam\", Shivdrashti Street No-1, Opp. Shashtrinagar Gate, Nana Mava main Road","__v":0},{"_id":{"$oid":"5e170e5cc5de2a5ee2e753e5"},"modeOfTransport":"Parents","postCode":"360005","name":"Palak Dharmeshbhai Govani","std":"4B","address":"301-Siddhivinayak Com. Complex, Sadhu Vasvani Road","__v":0},{"_id":{"$oid":"5e170e5cc5de2a5ee2e753e6"},"modeOfTransport":"Van","postCode":"360003","name":"Harvi Kamleshbhai Sankhavara","std":"4A","address":"2-Ranchhod nagar , Bhima Lunagariya Street, \"Ellora Art\", Nr. Sant Kabir Road","__v":0},{"_id":{"$oid":"5e170e5cc5de2a5ee2e753e7"},"modeOfTransport":"Van","postCode":"360004","name":"Dhruvi Vijaybhai Meghani","std":"7A","address":"\"Ram\",9-Backbon park, B/H. Balaji Hall, 150 feet Ring Road","__v":0},{"_id":{"$oid":"5e170e5cc5de2a5ee2e753e8"},"modeOfTransport":"Van","postCode":"360005","name":"Jugal Ramesh Sabhadiya","std":"8A","address":"304-Tirupati Palace, Ghanshyam Nagar Main Road, B/H. IOC Qtr, Kalawad Road","__v":0},{"_id":{"$oid":"5e170e5cc5de2a5ee2e753e9"},"modeOfTransport":"Parents","postCode":"360005","name":"Prushti Vipulkumar Vachhani","std":"10A","address":"2-Parimal Society, Block No:4, B/H. Akashvani Quarter, University Road","__v":0},{"_id":{"$oid":"5e170e5cc5de2a5ee2e753ea"},"modeOfTransport":"Van","postCode":"360001","name":"Nandiniba Jaydeepsinh Jadeja","std":"7A","address":"82, Kevlam Residency, Nr. Aalap Century, Kalawad Road","__v":0},{"_id":{"$oid":"5e170e5cc5de2a5ee2e753eb"},"modeOfTransport":"Van","postCode":"360005","name":"Aastha Piyushbhai Kalariya","std":"7B","address":"A/59 Alay Park, Nana Mova Main Road, opp. Mahatma Gandhi School","__v":0},{"_id":{"$oid":"5e170e5cc5de2a5ee2e753ec"},"modeOfTransport":"Van","postCode":"360003","name":"Neha Ashishbhai Udani","std":"5B","address":"306-Satguru Jyot, 29 Ranchhodnagar, Pedak Road","__v":0},{"_id":{"$oid":"5e170e5cc5de2a5ee2e753ed"},"modeOfTransport":"Van","postCode":"360005","name":"Aayushi Pareshbhai Dhokiya","std":"5A","address":"\"Momai Krupa\", Sajke Beauty Parlour, Maruti Nagar 1, Kuwadwa Road","__v":0},{"_id":{"$oid":"5e170e5cc5de2a5ee2e753ee"},"modeOfTransport":"Van","postCode":"360005","name":"Tirtha Maheshbhai Paneliya","std":"5A","address":"\"Khodiyar Krupa\",  Chitrakutdham Soc., B/No.-112","__v":0},{"_id":{"$oid":"5e170e5cc5de2a5ee2e753ef"},"modeOfTransport":"Van","postCode":"360001","name":"Tammana Rajubhai Pathan","std":"6B","address":"\"Shiv-Sadan\", Subhash nagar Street No.7, Haweliwali Street, opp. Ashirwad House, Amrapali Road","__v":0},{"_id":{"$oid":"5e170e5cc5de2a5ee2e753f0"},"modeOfTransport":"Van","postCode":"360007","name":"Gunja Amit Kothari","std":"8A","address":"212-Ravi Residency, B/H. Sterling Hospital, 150 Feet ring road","__v":0},{"_id":{"$oid":"5e170e5cc5de2a5ee2e753f1"},"modeOfTransport":"Van","postCode":"360002","name":"Komalba Yuvrajsinh Rana","std":"10A","address":"1102-B Vardhman Heights opp SRPF Camp ghanteshwar new 150 feet ring road .","__v":0},{"_id":{"$oid":"5e170e5cc5de2a5ee2e753f2"},"modeOfTransport":"Van","postCode":"360002","name":"Dhruva Dipeshbhai Bhalodi","std":"6A","address":"\"Shree Nathji Krupa\", Street-No:5/C, Shubhash Nagar, Kothariya Road","__v":0},{"_id":{"$oid":"5e170e5cc5de2a5ee2e753f3"},"modeOfTransport":"Van","postCode":"360007","name":"Jhil Mehulbhai Mandavia","std":"8A","address":"64-103, Race Course Park, Airport Road","__v":0},{"_id":{"$oid":"5e170e5cc5de2a5ee2e753f4"},"modeOfTransport":"Van","postCode":"360007","name":"Trusha Rajeshkumar Dave","std":"9A","address":"\"Ruda nagar', Avadh Road, Nr.Uma PTC College, Opp. TGB Hotel, G-205, Kalawad Road","__v":0},{"_id":{"$oid":"5e170e5cc5de2a5ee2e753f5"},"modeOfTransport":"Van","postCode":"360005","name":"Hemangi Deveshbhai Karia","std":"4A","address":"293/294 Plot No, Sanjay Vatika, Neel City Campus, Kalawad Road","__v":0},{"_id":{"$oid":"5e170e5cc5de2a5ee2e753f6"},"modeOfTransport":"Van","postCode":"360003","name":"Prachi Ashishbhai Akbari","std":"8A","address":"5,9, Corner, Shri Ranchhodnagar, Pedak Road","__v":0},{"_id":{"$oid":"5e170e5cc5de2a5ee2e753f7"},"modeOfTransport":"Van","postCode":"360007","name":"Manasvi Anilbhai Borsadiya","std":"8A","address":"\"Krishna\", 3 Govardhan Society, Amin Marg","__v":0},{"_id":{"$oid":"5e170e5cc5de2a5ee2e753f8"},"modeOfTransport":"Van","postCode":"360004","name":"Kavya Prakash Joshi","std":"6B","address":"302 Annuradha Apt., Radha Nagar Main Road","__v":0},{"_id":{"$oid":"5e170e5cc5de2a5ee2e753f9"},"modeOfTransport":"Van","postCode":"360005","name":"Diya Bhavinbhai Raithatha","std":"7B","address":"D-404, Cozy Courtyard, Opp. Speedwell Party Plot, Mota Mava","__v":0},{"_id":{"$oid":"5e170e5cc5de2a5ee2e753fa"},"modeOfTransport":"Van","postCode":"360007","name":"Hemaxiba Mahavirsinh Jadeja","std":"7B","address":"\"Raj Residency\", 11-Lakh No Bungalow, Akshar Nagar Main Road, Nr. Balkrishna Dairy, Gandhigram","__v":0},{"_id":{"$oid":"5e170e5cc5de2a5ee2e753fb"},"modeOfTransport":"Van","postCode":"360007","name":"Vibhuti Deveshbhai Karia","std":"7B","address":"Plot No-293/294., Sanjay Vatika, Neel City Campus, Kalawad Road ","__v":0},{"_id":{"$oid":"5e170e5cc5de2a5ee2e753fc"},"modeOfTransport":"Van","postCode":"360001","name":"Garvishaba Kishorsinh Jadeja","std":"10A","address":"Plot No 22-A, Vishnu-Vihar Society, Street No.-5, University Road ","__v":0},{"_id":{"$oid":"5e170e5cc5de2a5ee2e753fd"},"modeOfTransport":"Van","postCode":"360007","name":"Jogeshwariba Umedsinh Zala","std":"4A","address":"Bharati nagar Gandhigram rajkot ","__v":0},{"_id":{"$oid":"5e170e5cc5de2a5ee2e753fe"},"modeOfTransport":"Parents","postCode":"360005","name":"Ketki Manoj Tanti","std":"4B","address":"\" Khodiayr krupa\" Patelpark -258  Raiya telephone Exchange road","__v":0},{"_id":{"$oid":"5e170e5cc5de2a5ee2e753ff"},"modeOfTransport":"Parents","postCode":"360005","name":"Mansi Budheshbhai Dadresa","std":"4A","address":"rajrajeshwar temple behind vedi talav raiya village","__v":0},{"_id":{"$oid":"5e170e5cc5de2a5ee2e75400"},"modeOfTransport":"Van","postCode":"360005","name":"Sakshi Jitendrabhai Dhameliya","std":"4B","address":"STYLOHATR SALOON opp satadhr marble near nana mova kalawad road rajkot","__v":0},{"_id":{"$oid":"5e170e5cc5de2a5ee2e75401"},"modeOfTransport":"Parents","postCode":"360005","name":"Kaushar Faiyaj Kureshi","std":"4A","address":"Khodiyar para opp muktidham raiya village","__v":0},{"_id":{"$oid":"5e170e5cc5de2a5ee2e75402"},"modeOfTransport":"Van","postCode":"360005","name":"Yashvi Jaykumar Doshi","std":"9A","address":"7B Amrutprabhat appt,7 floor Dr, Yagnik road, 20 New Jagnath Corner,above ramkrishna dairy farm","__v":0},{"_id":{"$oid":"5e170e5cc5de2a5ee2e75403"},"modeOfTransport":"Van","postCode":"360007","name":"Tanisi Nimitbhai Trivedi","std":"3B","address":"Om Bhargo',2-Rajhans Society,B/h Kadar Vora Shop,Raiya Road,Rajkot","__v":0},{"_id":{"$oid":"5e170e5cc5de2a5ee2e75404"},"modeOfTransport":"Parents","postCode":"360005","name":"Purva Prashantbhai Raval","std":"3B","address":"Umiyaji Provijan Store,Nr. A.G.staff Quarter,University Road,Rajkot ","__v":0},{"_id":{"$oid":"5e170e5cc5de2a5ee2e75405"},"modeOfTransport":"Van","postCode":"360005","name":"Prachi Sangitkumar Geriya","std":"3A","address":"Kishor Kumar Anantray Geriya,'Kamal-Kunj'Tulsi Park,Nr.Raiya Telephone Exchange,150 Feet Road","__v":0},{"_id":{"$oid":"5e170e5cc5de2a5ee2e75406"},"modeOfTransport":"Parents","postCode":"360005","name":"Pal Himanshu Dhudashiya","std":"3A","address":"201,\"Dew Appt\",Jalaram II,Street No.6,B/H Anurag Appt.Nr. Indira Circle,Rajkot","__v":0},{"_id":{"$oid":"5e170e5cc5de2a5ee2e75407"},"modeOfTransport":"Parents","postCode":"360005","name":"Prachi  Amitbhai Kothadiya","std":"3A","address":"Nand Bhumi Tower-6,Block No.642,T.n.rao College,University Road.Rajkot","__v":0},{"_id":{"$oid":"5e170e5cc5de2a5ee2e75408"},"modeOfTransport":"Van","postCode":"360005","name":"Prachi  Hiteshbhai Rathod","std":"3B","address":"1-vividh Karmchari Society,Karan Park Main Road,Opp.R.K.Willa,Karan Park Main Road,Nana Mauva Circle.Rajkot","__v":0},{"_id":{"$oid":"5e170e5cc5de2a5ee2e75409"},"modeOfTransport":"Van","postCode":"360004","name":"Niyati Subhashbhai Sardhara","std":"3B","address":"\"Jogi\"Govind Ratana Residency,Street No.3,Opp.Shiv,B/H Astha Residency,150 Feet Ring Road,Rajkot","__v":0},{"_id":{"$oid":"5e170e5cc5de2a5ee2e7540a"},"modeOfTransport":"Van","postCode":"360002","name":"Namashvi Vipulbhai Donga","std":"3B","address":"\"Lilavati\"4-Pujara Plot,Nr Bhaktinagar Society,Opp.Pravin Kunj","__v":0},{"_id":{"$oid":"5e170e5cc5de2a5ee2e7540b"},"modeOfTransport":"Van","postCode":"360004","name":"Naitri Bipinbhai Sardhara","std":"3B","address":"\"Jogi\"Opp.Shiv Home,Govind Ratna Residency,St No.3,B/H Aastha Residency,150 Feet Ring Road","__v":0},{"_id":{"$oid":"5e170e5cc5de2a5ee2e7540c"},"modeOfTransport":"Van","postCode":"360005","name":"Mahek Ketanbhai Ardeshna","std":"3A","address":"Aalap Heritage,Block No.A42,Satya Sai Heart Hospital Road,Kalawad Road,Rajkot","__v":0},{"_id":{"$oid":"5e170e5cc5de2a5ee2e7540d"},"modeOfTransport":"Parents","postCode":"360007","name":"Mahi Jay Acharya","std":"3A","address":"\"Prakash Daya\",1-Bharatuan-C Society,Opp.Laxmi Residency,B/h Santosh Park,B/h Sterling Hospital","__v":0},{"_id":{"$oid":"5e170e5cc5de2a5ee2e7540e"},"modeOfTransport":"Van","postCode":"360005","name":"Keya Rachana  Vaghela","std":"3B","address":"27/B,New Collegewadi,Street No.3,B/h Punjab Honda,Kalawad Road","__v":0},{"_id":{"$oid":"5e170e5cc5de2a5ee2e7540f"},"modeOfTransport":"Van","postCode":"360005","name":"Khushaliba Pareshkumar Rathod","std":"3B","address":"\"Maa\"Toral Park-2,Block No.27,Nr Vimal Nagar,University Road","__v":0},{"_id":{"$oid":"5e170e5cc5de2a5ee2e75410"},"modeOfTransport":"Van","postCode":"360001","name":"Harvey Nimeshbhai Zalavadia","std":"3B","address":"J.K.Park,B/h Alap Green City,Nandvilla,A 301,Raiya Road,Rajkot","__v":0},{"_id":{"$oid":"5e170e5cc5de2a5ee2e75411"},"modeOfTransport":"Van","postCode":"360001","name":"Angel Pareshbhai Jagda","std":"3B","address":"Jay Dwarkadhish, 150 feet ring road, Opp.Eagle travels","__v":0},{"_id":{"$oid":"5e170e5cc5de2a5ee2e75412"},"modeOfTransport":"Van","postCode":"360001","name":"Khanak Hemalkumar Jagda","std":"3B","address":"Jay Dwarkadhish, 150 feet ring road, Opp.Eagle travels","__v":0},{"_id":{"$oid":"5e170e5cc5de2a5ee2e75413"},"modeOfTransport":"Van","postCode":"360001","name":"Yana Darshanbhai Parmar","std":"3A","address":"A-62 Alap Green City Raiya Road","__v":0},{"_id":{"$oid":"5e170e5cc5de2a5ee2e75414"},"modeOfTransport":"Van","postCode":"360003","name":"Ichha Devraj Chauhan","std":"3A","address":"\"Maharpara\", Opp. Thora Police Station, Chunawad Chowk, Bhavnagar Road","__v":0},{"_id":{"$oid":"5e170e5cc5de2a5ee2e75415"},"modeOfTransport":"Parents","postCode":"360005","name":"Vrunda Pratik Mehta","std":"3B","address":"B-102,Rainbow City-II,Mota Mauva,Kalawad Road,Rajkot","__v":0},{"_id":{"$oid":"5e170e5cc5de2a5ee2e75416"},"modeOfTransport":"Van","postCode":"360005","name":"Yatri Satishbhai Shingala","std":"3B","address":"Block No.73,Krishnapark,Opp.Aalap Century,Kalawad Road","__v":0},{"_id":{"$oid":"5e170e5cc5de2a5ee2e75417"},"modeOfTransport":"Van","postCode":"360004","name":"Yesha Sagar Patel","std":"3A","address":"Om Nagar-B,Block No.40,150 Feet Ring Road,Near Patel Boarding,Rajkot","__v":0},{"_id":{"$oid":"5e170e5cc5de2a5ee2e75418"},"modeOfTransport":"Van","postCode":"360005","name":"Zeel Manvirbhai Miyatra","std":"3B","address":"\"Shiv-2\"App.Tapas Society,Nana Mauva Main Road.Rajkot","__v":0},{"_id":{"$oid":"5e170e5cc5de2a5ee2e75419"},"modeOfTransport":"Van","postCode":"360005","name":"Akshi Girishbhai Kotadiya","std":"3A","address":"Shardanagar Street No.5,Block No.18A/2 \"vraj\"University Road.Rajkot","__v":0},{"_id":{"$oid":"5e170e5cc5de2a5ee2e7541a"},"modeOfTransport":"Van","postCode":"360004","name":"Bhavya Arvind Desai","std":"3A","address":"Shanti Niketan,9-Backbon Park,150 Feet Ring Road,B/h Balaji Hall.Rajkot","__v":0},{"_id":{"$oid":"5e170e5cc5de2a5ee2e7541b"},"modeOfTransport":"Van","postCode":"360005","name":"Anvi Rajesh Zalariya","std":"3B","address":"103,Vishvakarma Society,Street No.5,Sadhuvasvani Road,University Road","__v":0},{"_id":{"$oid":"5e170e5cc5de2a5ee2e7541c"},"modeOfTransport":"Van","postCode":"360001","name":"Charvi Alpeshbhai Ponda","std":"3B","address":"Block No.202,Krishma Avenue,Vidhyanagar-1,Dr Yaganik Road","__v":0},{"_id":{"$oid":"5e170e5cc5de2a5ee2e7541d"},"modeOfTransport":"Van","postCode":"360005","name":"Dhruvanshiba Dharmrajsinh Jadeja","std":"3B","address":"Aashapura Krupa'Block No.57,Chandrapark Society,Street No-6,Nr.Big Bazar,150 Feet Ring Road","__v":0},{"_id":{"$oid":"5e170e5cc5de2a5ee2e7541e"},"modeOfTransport":"Van","postCode":"360004","name":"Diva Rohit Kukadia","std":"3A","address":"\"Shreenathji\"Madhuvan-Park2,B/h Alap Royal Palm,Mavdi,Rajkot","__v":0},{"_id":{"$oid":"5e170e5cc5de2a5ee2e7541f"},"modeOfTransport":"Van","postCode":"360005","name":"Gyana Meetbhai Vachhani","std":"3A","address":"Janakpuri Society,Block No.113,Sadhuvasvani Road","__v":0},{"_id":{"$oid":"5e170e5cc5de2a5ee2e75420"},"modeOfTransport":"Van","postCode":"360005","name":"Heerben Rajeshbhai Virpariya","std":"3A","address":"89-'Palak',Ravipark-9,Near Love Temple,Kalawad Road,Rajkot","__v":0},{"_id":{"$oid":"5e170e5cc5de2a5ee2e75421"},"modeOfTransport":"Parents","postCode":"360005","name":"Barby Vijay Vadalia","std":"3A","address":"Nand bhumi appt. Opp.T N Rao school","__v":0},{"_id":{"$oid":"5e170e5cc5de2a5ee2e75422"},"modeOfTransport":"","postCode":"360004","name":"Jenny Dipakbhai Parmar","std":"3A","address":"A-21, Madhuvan Soc., Near Laxmi Nagar, Nana Mauva Main road","__v":0},{"_id":{"$oid":"5e170e5cc5de2a5ee2e75423"},"modeOfTransport":"Parents","postCode":"360005","name":"Chaahat Ketanbhai Joshi","std":"3B","address":"171, Prashil park, Neel city club campus, Uni. Road","__v":0},{"_id":{"$oid":"5e170e5cc5de2a5ee2e75424"},"modeOfTransport":"","postCode":"360005","name":"Khushi Bhavesh Ghodasara","std":"3A","address":"\"Balaji\", Sarita park -4, Block No 5, Patidar chowk, Sadhu wasvani road","__v":0},{"_id":{"$oid":"5e170e5cc5de2a5ee2e75425"},"modeOfTransport":"Van","postCode":"360005","name":"Naitri Jitendrabhai Nakum","std":"3A","address":"2-gunatit nagar, Near raiya telephone exchange, 150 feet ring road","__v":0},{"_id":{"$oid":"5e170e5cc5de2a5ee2e75426"},"modeOfTransport":"","postCode":"360005","name":"Manyataba Kripalsinh Jadeja","std":"3A","address":"\"Jay Ashapura\", R.K. Nagar, B-10, Kalawad Road","__v":0},{"_id":{"$oid":"5e170e5cc5de2a5ee2e75427"},"modeOfTransport":"Van","postCode":"360006","name":"Jagviba Devendrasinh Solanki","std":"3B","address":"Astha Avenue, b-94, 150 feet ring road, Near Ayodhya chowk","__v":0},{"_id":{"$oid":"5e170e5cc5de2a5ee2e75428"},"modeOfTransport":"","postCode":"360003","name":"Krishna Ketankumar Sheladiya","std":"3B","address":"\"Krishna\", Sadguru ranchhod nagar-3, Nr. Mehul school, Kuvadva road 1","__v":0},{"_id":{"$oid":"5e170e5cc5de2a5ee2e75429"},"modeOfTransport":"Van","postCode":"360006","name":"Sharvi Nilesh Rathod","std":"3A","address":"301,Sahaj Complex,3rd Floor ,Bajarangwadi Main Road,Jamnagar Road,Rajkot","__v":0},{"_id":{"$oid":"5e170e5cc5de2a5ee2e7542a"},"modeOfTransport":"Van","postCode":"360005","name":"Jaladhi Dipenkumar Devani","std":"4A","address":"203 Alap Heritage Appt., Satya Sai road, Opp. Shagun Residency","__v":0},{"_id":{"$oid":"5e170e5cc5de2a5ee2e7542b"},"modeOfTransport":"Parents","postCode":"360001","name":"Rutvi Jigneshbhai Dave","std":"4B","address":"\"Rugdev\", Block no. B/2, Shree laxmi residency, Raiya road","__v":0},{"_id":{"$oid":"5e170e5cc5de2a5ee2e7542c"},"modeOfTransport":"Parents","postCode":"360001","name":"Nidhi Narendrabhai Zala","std":"5A","address":"\"Nidhi\", B- 4, Mahi nagar-1, Rukshamani bunglows, Raiya road","__v":0},{"_id":{"$oid":"5e170e5cc5de2a5ee2e7542d"},"modeOfTransport":"Van","postCode":"360001","name":"Purvasha Birju Vasavada","std":"5A","address":"\"Himja\", B-7, Shree Soc., Street No-2/3 corner, Nana mauva road","__v":0},{"_id":{"$oid":"5e170e5cc5de2a5ee2e7542e"},"modeOfTransport":"Van","postCode":"360004","name":"Priyanshi Sunilbhai Nimbark","std":"6B","address":"\"Yaduvanshi\", Navalnagar 8, mavdi main road","__v":0},{"_id":{"$oid":"5e170e5cc5de2a5ee2e7542f"},"modeOfTransport":"Van","postCode":"360005","name":"Hetvi Hiteshkumar Adhiya","std":"7B","address":"C-304, Padmavati Residency, Gautamnagar-1, Gandhigram","__v":0},{"_id":{"$oid":"5e170e5cc5de2a5ee2e75430"},"modeOfTransport":"Van","postCode":"360003","name":"Hitika Chandreshbhai Dudhatra","std":"7A","address":"Shiv shrusti park, Street No. 1, Pedak road","__v":0},{"_id":{"$oid":"5e170e5cc5de2a5ee2e75431"},"modeOfTransport":"Parents","postCode":"360007","name":"Princy Jigneshbhai Dave","std":"7A","address":"\"Rugdev\", Block No. B/2, Shree laxmi residency, Raiya road","__v":0},{"_id":{"$oid":"5e170e5cc5de2a5ee2e75432"},"modeOfTransport":"Parents","postCode":"360001","name":"Mahek Vijaybhai Vadalia","std":"9A","address":"Nand bhumi appt. Opp.T N Rao school","__v":0},{"_id":{"$oid":"5e170e5cc5de2a5ee2e75433"},"modeOfTransport":"Van","postCode":"360001","name":"Hitanshi Harish Patel","std":"5A","address":"BOI Officers flats, flat No 202, Opp. Indoor stadium, Nr. Life building, Race course ring road","__v":0},{"_id":{"$oid":"5e170e5cc5de2a5ee2e75434"},"modeOfTransport":"Van","postCode":"360004","name":"Meeraba Yogirajsinh Vadher","std":"6B","address":"\"Guru Krupa\", Viral Soc.-1, Nana Mauva main road","__v":0},{"_id":{"$oid":"5e170e5cc5de2a5ee2e75435"},"modeOfTransport":"Van","postCode":"360005","name":"Vraja Rajeshbhai Dadhaniya","std":"4B","address":"\"Uma Aashish\", Dharmaraj park Street No. 2, Near Patidar chowk, Sadhuvaswani road, uni. Road","__v":0},{"_id":{"$oid":"5e170e5cc5de2a5ee2e75436"},"modeOfTransport":"Parents","postCode":"360001","name":"Dhruvi Ramjibhai Hirani","std":"10A","address":"\"Khodiyar Krupa\", At. Guridad, Morbi road","__v":0},{"_id":{"$oid":"5e170e5cc5de2a5ee2e75437"},"modeOfTransport":"Van","postCode":"360005","name":"Prisha Ravibhai Kakkad","std":"4A","address":"Palm city B-202, Near Vidhyaniketan School","__v":0},{"_id":{"$oid":"5e170e5cc5de2a5ee2e75438"},"modeOfTransport":"Van","postCode":"360005","name":"Astha Mishal Chhatrala","std":"6A","address":"B-101, Dream Hill Appt., Bansi park, Near Ganga Hall, End of amin marg","__v":0},{"_id":{"$oid":"5e170e5cc5de2a5ee2e75439"},"modeOfTransport":"Van","postCode":"360004","name":"Diya Dhavalbhai Vora","std":"6A","address":"3, Gulab vatika, Near Amin marg, Opp. Krupa sagar","__v":0},{"_id":{"$oid":"5e170e5cc5de2a5ee2e7543a"},"modeOfTransport":"Auto","postCode":"360001","name":"Rahi Sanjaybhai Hirani","std":"5B","address":"\"Khodiyar Krupa\", At. Guridad, Morbi road","__v":0},{"_id":{"$oid":"5e170e5cc5de2a5ee2e7543b"},"modeOfTransport":"Parents","postCode":"360005","name":"Kruti Jagdishbhai Kansagara","std":"7B","address":"92- Parimal Soc. Akashwani chowk, Uni. Road","__v":0},{"_id":{"$oid":"5e170e5cc5de2a5ee2e7543c"},"modeOfTransport":"Parents","postCode":"360005","name":"Devanshi Dinesh Hinsu","std":"10A","address":"1202 Paledium Heights, Sadhuvaswani school, Opp. Chandan Heights","__v":0},{"_id":{"$oid":"5e170e5cc5de2a5ee2e7543d"},"modeOfTransport":"Parents","postCode":"360005","name":"Vruti Hiteshbhai Kansagara","std":"7B","address":"92- Parimal Soc. Akashwani chowk, Uni. Road","__v":0},{"_id":{"$oid":"5e170e5cc5de2a5ee2e7543e"},"modeOfTransport":"Parents","postCode":"360005","name":"Anvi Navneet Detroja","std":"8A","address":"77 Satalite Soc. Sadhu vaswni road","__v":0},{"_id":{"$oid":"5e170e5cc5de2a5ee2e7543f"},"modeOfTransport":"Parents","postCode":"360005","name":"Hetanshi Dipakbhai Pachani","std":"9A","address":"133, Nand vihar flat, Sadhu vaswani road","__v":0},{"_id":{"$oid":"5e170e5cc5de2a5ee2e75440"},"modeOfTransport":"Van","postCode":"360001","name":"Keertana Toshal Chopade","std":"6B","address":"Flat No. 403, Haridwar heights, J.P.I.","__v":0},{"_id":{"$oid":"5e170e5cc5de2a5ee2e75441"},"modeOfTransport":"Van","postCode":"360005","name":"Aksha Arifbhai Odiya","std":"3A","address":"L-2-27, Rura Housing Board, Street No-1, B'h Love temple, Kalawad road","__v":0},{"_id":{"$oid":"5e170e5cc5de2a5ee2e75442"},"modeOfTransport":"Van","postCode":"360007","name":"Bhoomiba Nirmalsinh Zala","std":"3A","address":"\"Shakti Krupa\", Shiv para - 2, Bramha samaj chowk, Raiya road","__v":0},{"_id":{"$oid":"5e170e5cc5de2a5ee2e75443"},"modeOfTransport":"Van","postCode":"360001","name":"Himani Balvant Nandha","std":"3B","address":"Royal Sarvovar Appt., F no. A-301, Juhu Bombay Trejan, Opp. Anamika Center, Kevdavadi main road","__v":0},{"_id":{"$oid":"5e170e5cc5de2a5ee2e75444"},"modeOfTransport":"Parents","postCode":"360007","name":"Kaikasha Rahimbhai Shah","std":"3B","address":"Shivpara 9 Brahmsamaj Chowk Raiya road RAJKOT ","__v":0},{"_id":{"$oid":"5e170e5cc5de2a5ee2e75445"},"modeOfTransport":"","postCode":"360005","name":"Kaveri Hemant Chararia","std":"3A","address":"Geetanjali Bhawani nagar 2 Near Manav Flats University road rajkot","__v":0},{"_id":{"$oid":"5e170e5cc5de2a5ee2e75446"},"modeOfTransport":"Van","postCode":"360005","name":"Khanak Vimalbhai Sanchaniya","std":"3A","address":"Near Sau.Uni., Munjaka Gam, Opp. Sadguru Hostel, Near Krishna Teilars","__v":0},{"_id":{"$oid":"5e170e5cc5de2a5ee2e75447"},"modeOfTransport":"","postCode":"360007","name":"Misri Pareshbhai Negandhi","std":"3B","address":"Nandanvan Soc., Raiya road, Shreenathji Appt., 1st floor","__v":0},{"_id":{"$oid":"5e170e5cc5de2a5ee2e75448"},"modeOfTransport":"","postCode":"360007","name":"Nurulhuda Hanifbhai Saiyad","std":"3A","address":"Raza nagar, Street 4, \"Nigane karam\", Nr. Naheru nagar 5, Raiya road","__v":0},{"_id":{"$oid":"5e170e5cc5de2a5ee2e75449"},"modeOfTransport":"","postCode":"360007","name":"Rajal Bakabhai Karetha","std":"3A","address":"Shivara Street no-2, near hanuman madhi chowk, raiya road","__v":0},{"_id":{"$oid":"5e170e5cc5de2a5ee2e7544a"},"modeOfTransport":"","postCode":"360004","name":"Trisha Jaysukhbhai Ravat","std":"3B","address":"D-102 Backbone residency Madhapar chowkdi ","__v":0},{"_id":{"$oid":"5e170e5cc5de2a5ee2e7544b"},"modeOfTransport":"","postCode":"360004","name":"Triya Jaysukhbhai Ravat","std":"3B","address":"D-102 Backbone residency Madhapar chowkdi ","__v":0},{"_id":{"$oid":"5e170e5cc5de2a5ee2e7544c"},"modeOfTransport":"Parents","postCode":"360005","name":"Yansi Jasminbhai Chaniyara","std":"3B","address":"\"Gopi kunj\", Madhav park street no 2, Uni. Road.","__v":0},{"_id":{"$oid":"5e170e5cc5de2a5ee2e7544d"},"modeOfTransport":"","postCode":"360007","name":"Yashvi Miteshbhai Ashar","std":"3A","address":"Shreenathji Appt., Nandnavan Soc., 150 feet ring road","__v":0},{"_id":{"$oid":"5e170e5cc5de2a5ee2e7544e"},"modeOfTransport":"Van","postCode":"360003","name":"Vishwa Hiren Popat","std":"4B","address":"\"Momai Krupa\", Street No. 3, Radha mira soc., morbi road","__v":0},{"_id":{"$oid":"5e170e5cc5de2a5ee2e7544f"},"modeOfTransport":"Van","postCode":"360002","name":"Dhani Sandipbhai Chavda","std":"5B","address":"Ghee khata road, near jayant Coldrinks","__v":0},{"_id":{"$oid":"5e170e5cc5de2a5ee2e75450"},"modeOfTransport":"Parents","postCode":"360005","name":"Griva Amit Patel","std":"6A","address":"\"Shreeji\", 10- Saurashtrakala kendra Soc., Opp. Ripal house","__v":0},{"_id":{"$oid":"5e170e5cc5de2a5ee2e75451"},"modeOfTransport":"Van","postCode":"360006","name":"Shreya Kirtikumar Patadia","std":"6B","address":"\"Shrinathji Krupa\", Parmeshwar park-2, Mahadev vadi main road, B/h. mayani chowk","__v":0},{"_id":{"$oid":"5e170e5cc5de2a5ee2e75452"},"modeOfTransport":"Van","postCode":"360005","name":"Aarchi Kalpeshbhai Sagpariya","std":"8A","address":"\"Shri Ram Krupa\", Silver stone-3, Street No. 9, Opp. Big bazar, Nr. Oscar Tower","__v":0},{"_id":{"$oid":"5e170e5cc5de2a5ee2e75453"},"modeOfTransport":"","postCode":"360006","name":"Rutvi Hardikbhai Patel","std":"8A","address":"303-B1, Green mandir Appt,Ayodhya Residancy, 150 feet ring road","__v":0},{"_id":{"$oid":"5e170e5cc5de2a5ee2e75454"},"modeOfTransport":"","postCode":"360007","name":"Ramsha Mudasser Fatima","std":"9A","address":"Mufasser Pesver C/o. Karimbhai Lakhva, Nehru nagar no 3, Raiya road","__v":0},{"_id":{"$oid":"5e170e5cc5de2a5ee2e75455"},"modeOfTransport":"","postCode":"360001","name":"Khushi Bharatbhai Ranpara","std":"9A","address":"\"Spandan\", Janta Soc-6, Nr. LIC Building, Mahila College chock","__v":0},{"_id":{"$oid":"5e170e5cc5de2a5ee2e75456"},"modeOfTransport":"Van","postCode":"360001","name":"Vrinda Suresh Mavadhiya","std":"9A","address":"Copper city plus Vakaner society Jamnagar road","__v":0},{"_id":{"$oid":"5e170e5cc5de2a5ee2e75457"},"modeOfTransport":"Parents","postCode":"360005","name":"Dharini Prakashbhai Manavadariya","std":"9A","address":"Falt No 102 416 LIG GHB colony NEW 150 ring road behind saurashtra university RAJKOT","__v":0},{"_id":{"$oid":"5e170e5cc5de2a5ee2e75458"},"modeOfTransport":"Van","postCode":"360005","name":"Leeza Hardikbhai Soneji","std":"3B","address":"16 Chitrkutdham Society Behind Snk school University Road Rajkot","__v":0},{"_id":{"$oid":"5e170e5cc5de2a5ee2e75459"},"modeOfTransport":"Parents","postCode":"360005","name":"Fiza Bimal Saparia","std":"6B","address":"\"Ashutosh, Shakti Nagar Kalawad Road Near Gayatri Temple.","__v":0},{"_id":{"$oid":"5e170e5cc5de2a5ee2e7545a"},"modeOfTransport":"Parents","postCode":"360005","name":"Shriya Bimal Saparia","std":"3B","address":"\"Ashutosh, Shakti Nagar Kalawad Road Near Gayatri Temple.","__v":0},{"_id":{"$oid":"5e170e5cc5de2a5ee2e7545b"},"modeOfTransport":"Parents","postCode":"360005","name":"Trisha Jayeshbhai Zalavadiya","std":"7A","address":"\"Om Sai\", Nr. Ram Temple, Raiya Gam","__v":0},{"_id":{"$oid":"5e170e5cc5de2a5ee2e7545c"},"modeOfTransport":"Parents","postCode":"360005","name":"Vani Brijesh Gondha","std":"4A","address":"203 land scape Sadhuvaswani road Near suncity ","__v":0},{"_id":{"$oid":"5e170e5cc5de2a5ee2e7545d"},"modeOfTransport":"Parents","postCode":"360006","name":"Tannaz Hatimbhai Padhiyar","std":"3B","address":"4 Gandhigram,Raiya Road","__v":0},{"_id":{"$oid":"5e170e5cc5de2a5ee2e7545e"},"modeOfTransport":"Van","postCode":"360001","name":"Roshani Vinodbhai Janala","std":"3A","address":"Street No 2 Priya residency Near Shakti Colony Kishanpara Chowk","__v":0},{"_id":{"$oid":"5e170e5cc5de2a5ee2e7545f"},"modeOfTransport":"Van","postCode":"360005","name":"Aanshi Divyeshbhai Kaneriya","std":"2B","address":"Flat No.-402, \"Sarita\" App. , Opp. Alap Avenue, B/H Royal Hall, Uni. Road","__v":0},{"_id":{"$oid":"5e170e5cc5de2a5ee2e75460"},"modeOfTransport":"Van","postCode":"361160","name":"Amisha Ankurbhai Timbadiya","std":"2A","address":"Opp. New Police Station , Patel wadi, Dhoraji Road Kalawad","__v":0},{"_id":{"$oid":"5e170e5cc5de2a5ee2e75461"},"modeOfTransport":"Van","postCode":"360007","name":"Aarushi Samir Punjani","std":"2A","address":"Dudh Sagar road, housing board, Ishan Complex","__v":0},{"_id":{"$oid":"5e170e5cc5de2a5ee2e75462"},"modeOfTransport":"Parent","postCode":"360005","name":"Brinda Vipulbhai Ghetiya","std":"2A","address":"7A Nivedita Soc., Nr. Tulsi Bag, Somanth-3","__v":0},{"_id":{"$oid":"5e170e5cc5de2a5ee2e75463"},"modeOfTransport":"","postCode":"360005","name":"Dishitaba Hardeepsinh Jhala","std":"2B","address":"403 Block no C Adelphi Enclave near neel city club university road","__v":0},{"_id":{"$oid":"5e170e5cc5de2a5ee2e75464"},"modeOfTransport":"Van","postCode":"360003","name":"Devanshi Kalpeshbhai Dudhatra","std":"2B","address":"Pedak Road,Shiv Shrusti Park,Street No1,Corner \"Jay Balaji\"","__v":0},{"_id":{"$oid":"5e170e5cc5de2a5ee2e75465"},"modeOfTransport":"Van","postCode":"360001","name":"Dhara Dipakbhai Delvadiya","std":"2C","address":"Karan Park Mian Road, Astrone Soc., Trilok App. B-202","__v":0},{"_id":{"$oid":"5e170e5cc5de2a5ee2e75466"},"modeOfTransport":"Parents","postCode":"360004","name":"Diya Priteshbhai Patel","std":"2A","address":"B 203 Shymal Vatika Beside T.n rao school university road","__v":0},{"_id":{"$oid":"5e170e5cc5de2a5ee2e75467"},"modeOfTransport":"Parents","postCode":"360001","name":"Devya Nipul Vithlani","std":"2A","address":"201 Apex Appartmenr Somnath 1 Street no 1 Corner Beside Jay Ganesh Ford 150 Feet ring road","__v":0},{"_id":{"$oid":"5e170e5cc5de2a5ee2e75468"},"modeOfTransport":"Parents","postCode":"360005","name":"Dharmiba Hitendrasinh Jadeja","std":"2B","address":"Dev Pusp Rudanagar-2 Uni. Road Nr. Vishnuvihar","__v":0},{"_id":{"$oid":"5e170e5cc5de2a5ee2e75469"},"modeOfTransport":"Van","postCode":"360002","name":"Hemangiba Sanatsinh Chudasama","std":"2A","address":"9/11 Bhomaeshwa Plote \"Shreeniwas\" Jamnagar Road","__v":0},{"_id":{"$oid":"5e170e5cc5de2a5ee2e7546a"},"modeOfTransport":"Van","postCode":"360007","name":"Heer Sunilbhai Mehta","std":"2B","address":"A-402,GoldStone Appartment,Nr Alap Green City Raiya Road ","__v":0},{"_id":{"$oid":"5e170e5cc5de2a5ee2e7546b"},"modeOfTransport":"Van","postCode":"360005","name":"Heer Rahul Shah","std":"2C","address":"A-2 Amidhara App., Jalaram-2 Street No-9, Sau. Uni. Road","__v":0},{"_id":{"$oid":"5e170e5cc5de2a5ee2e7546c"},"modeOfTransport":"Van","postCode":"360005","name":"Hiya Dhavalbhai Bhumbharia","std":"2B","address":"Yashvi , Opp. Siddhartha-2 Appt. Nr. Shaeed Bhagat Sinh Garden Uni Road","__v":0},{"_id":{"$oid":"5e170e5cc5de2a5ee2e7546d"},"modeOfTransport":"Parents","postCode":"360001","name":"Hardi Chintankumar Sinojiya","std":"2B","address":"B 1201 vasant vihar Patidar chowk Sadhuvaswani road","__v":0},{"_id":{"$oid":"5e170e5cc5de2a5ee2e7546e"},"modeOfTransport":"Parents","postCode":"360005","name":"Harvi Hiren Kothiya","std":"2B","address":"\"Bhavna\", Maruti Park, Patel Street-1, Satya Sai Hospital Road","__v":0},{"_id":{"$oid":"5e170e5cc5de2a5ee2e7546f"},"modeOfTransport":"Parents","postCode":"360007","name":"Ishani Bhavesh Joshi","std":"2A","address":"Block No. 44 Vrundavan Res., Opp. Shreenathji Flat, Madhapar","__v":0},{"_id":{"$oid":"5e170e5cc5de2a5ee2e75470"},"modeOfTransport":"Van","postCode":"360001","name":"Jogeshwariba Bharatsinh Solanki","std":"2C","address":"Aastha Avenue,Block No.94,150 Feet Ring Road.Rajkot","__v":0},{"_id":{"$oid":"5e170e5cc5de2a5ee2e75471"},"modeOfTransport":"Parents","postCode":"360003","name":"Jenny Amitbhai Rank","std":"2C","address":"Alka Park-4,New Asheam Road,Kuvadava Road,Opp Raghuvir Park\"Shree Raj\"Rajkot","__v":0},{"_id":{"$oid":"5e170e5cc5de2a5ee2e75472"},"modeOfTransport":"Parents","postCode":"360005","name":"Jainy Kiranbhai Gohil","std":"2B","address":"A-203 Savan Simphony, Raiya Village, Raiya Road","__v":0},{"_id":{"$oid":"5e170e5cc5de2a5ee2e75473"},"modeOfTransport":"Van","postCode":"360005","name":"Greeva Mahendrabhai Patel","std":"2A","address":"B-101, Safal Resi. , Mota Mava, Kalawad Road","__v":0},{"_id":{"$oid":"5e170e5cc5de2a5ee2e75474"},"modeOfTransport":"Van","postCode":"360005","name":"Kavya Bhavingiri Goswami","std":"2B","address":"\"Soham\"Jyoti Nagar,Street No.2,B/H Crystal Mall,Kalawad Road","__v":0},{"_id":{"$oid":"5e170e5cc5de2a5ee2e75475"},"modeOfTransport":"Parents","postCode":"360005","name":"Kavya Jayendra Ranipa","std":"2A","address":"Block no A 203 Shymal Vatika Beside T.N Rao school for Girls","__v":0},{"_id":{"$oid":"5e170e5cc5de2a5ee2e75476"},"modeOfTransport":"Van","postCode":"360001","name":"Kashvi Alpeshbhai Ponda","std":"2C","address":"Kailash Flat no 3 Mangla Main road","__v":0},{"_id":{"$oid":"5e170e5cc5de2a5ee2e75477"},"modeOfTransport":"Parents","postCode":"360007","name":"Khushi Nikunjbhai Bhalodiya","std":"2A","address":"B-624 Nandvillage, Patidar Chowk , Sadhuvaswani Road","__v":0},{"_id":{"$oid":"5e170e5cc5de2a5ee2e75478"},"modeOfTransport":"Van","postCode":"360005","name":"Khushi Jignesh Gami","std":"2B","address":"C-1204,Shyamal Skylife,Nr Speedwell Party Plot,Jivraj Park,Nana Mava Road","__v":0},{"_id":{"$oid":"5e170e5cc5de2a5ee2e75479"},"modeOfTransport":"Parents","postCode":"360005","name":"Kavya Ronikbhai Vachhani","std":"2A","address":"Satya Sai Main Road, Maruti Chowk , Patel Park Street No. 1","__v":0},{"_id":{"$oid":"5e170e5cc5de2a5ee2e7547a"},"modeOfTransport":"Van","postCode":"360005","name":"Kavya Shaileshbhai Thumar","std":"2A","address":"\"Abhi\" Parimal Soc. Plot No-29, B/H Sadhuvasvani School , Uni. Road ","__v":0},{"_id":{"$oid":"5e170e5cc5de2a5ee2e7547b"},"modeOfTransport":"Van","postCode":"360004","name":"Krisha Brijeshkumar Bhadani","std":"2A","address":"\"Hari Nivas\" Sukh Sagar Soc., Street No.9, B/H Eagel Resi. , Nr. Madhav Vatika Govardhan Chowk 150 Feet Ring Road","__v":0},{"_id":{"$oid":"5e170e5cc5de2a5ee2e7547c"},"modeOfTransport":"Van","postCode":"360005","name":"Mahek Pareshbhai Dhokiya","std":"2B","address":"Momai Krupa Somnath-3 Street No.12 150 Feet Ring Road","__v":0},{"_id":{"$oid":"5e170e5cc5de2a5ee2e7547d"},"modeOfTransport":"Van","postCode":"360005","name":"Nirvi Pravinbhai Pabani","std":"2B","address":"Block No-3 \"Shilpan Kunj\" Soc. , Nr. Parijat Res., Opp. Tulsivan App., Sadhuvaswani Road","__v":0},{"_id":{"$oid":"5e170e5cc5de2a5ee2e7547e"},"modeOfTransport":"Parents","postCode":"360006","name":"Nishi Sudhirbhai Ghodasara","std":"2C","address":"Vasant Vihar A-503 Patidar Chowk, Sadhuvasvani Road","__v":0},{"_id":{"$oid":"5e170e5cc5de2a5ee2e7547f"},"modeOfTransport":"Van","postCode":"360007","name":"Navya Milankumar Kaneriya","std":"2B","address":"Ravi Resi., B-200, Street No.-3, Dharamnagar Main Road, B/H Sterling Hosp., 1510 Feet Ring Road","__v":0},{"_id":{"$oid":"5e170e5cc5de2a5ee2e75480"},"modeOfTransport":"Van","postCode":"360001","name":"Prisha Ashutoshbhai Chavada","std":"2C","address":"J202 Shymal Vatika Beside T.N .Rao school for Girls","__v":0},{"_id":{"$oid":"5e170e5cc5de2a5ee2e75481"},"modeOfTransport":"Van","postCode":"360005","name":"Priyanshi Ashokbhai Ramoliya","std":"2B","address":"201-Vinayak Complex, Shyam Park, Opp. Pushkardham Temple, Uni. Road","__v":0},{"_id":{"$oid":"5e170e5cc5de2a5ee2e75482"},"modeOfTransport":"Van","postCode":"360005","name":"Pari Kinjalkumar Dhruv","std":"2B","address":"\"Siddhanam\", Jalaram 1, Umiya Park A, Opp. Navin Nagar, Uni. Road","__v":0},{"_id":{"$oid":"5e170e5cc5de2a5ee2e75483"},"modeOfTransport":"Parents","postCode":"360005","name":"Rudra Nikunjbhai Kalaria","std":"2A","address":"Flat No. 112, Nand Bhoomi Tower 1, Opp. T N Rao College, Nr. Uni. Campus, Uni. Road","__v":0},{"_id":{"$oid":"5e170e5cc5de2a5ee2e75484"},"modeOfTransport":"Van","postCode":"360001","name":"Saanvi Manishkumar Pansuriya","std":"2A","address":"Surya Park D-9, Nr. Ganga Hall Amin Marg","__v":0},{"_id":{"$oid":"5e170e5cc5de2a5ee2e75485"},"modeOfTransport":"Van","postCode":"360005","name":"Tathya Shantnu Jivani","std":"  ","address":"7- Nilkanth Nagar , Limbda Lane, Uni Road , Opp. Matru Chayya","__v":0},{"_id":{"$oid":"5e170e5cc5de2a5ee2e75486"},"modeOfTransport":"Van","postCode":"360001","name":"Vishwa Dharmesh Bakhai","std":"2A","address":"Shree Chamunda Krupa, 34/35 Karanpara, B/H ST Bus Stand","__v":0},{"_id":{"$oid":"5e170e5cc5de2a5ee2e75487"},"modeOfTransport":"Van","postCode":"360007","name":"Vanshri Vasant Bosiya","std":"2A","address":"7 Payal App., 1 Alakpuri Soc., Nr. Hanuman Madhi Chowk Raiya road ","__v":0},{"_id":{"$oid":"5e170e5cc5de2a5ee2e75488"},"modeOfTransport":"Parents","postCode":"360005","name":"Vaishvi Chiragbhai Amrutiya","std":"2A","address":"A-601, Dream Land App., Bansi Park , Amin Marg Road","__v":0},{"_id":{"$oid":"5e170e5cc5de2a5ee2e75489"},"modeOfTransport":"Van","postCode":"360007","name":"Yashvi Nileshbhai Kakadiya","std":"2A","address":"Block No.53,Avanti Park,Nr Shital Park,B/h Airport Wall,150 Ring Road.","__v":0},{"_id":{"$oid":"5e170e5cc5de2a5ee2e7548a"},"modeOfTransport":"Van","postCode":"360006","name":"Yatri Hardikkumar Vekaria","std":"2B","address":"304\"Mudit\"Hights,Nr Astha Avenue,Ayodhya Chowk,Nr Madhapar Chowckdi,150 Feet Ring Road  ","__v":0},{"_id":{"$oid":"5e170e5cc5de2a5ee2e7548b"},"modeOfTransport":"Van","postCode":"360005","name":"Yashvi Manubhai Garaiya","std":"2B","address":"Shivam Soc. Street No.1  Opp. Golden Supermarket Sadhuvasvani Road ","__v":0},{"_id":{"$oid":"5e170e5cc5de2a5ee2e7548c"},"modeOfTransport":"Parents","postCode":"360005","name":"Bhakti Ashish Thakar","std":"2B","address":"S-504 shyamal vatika nr t.n. rao school , university road ","__v":0},{"_id":{"$oid":"5e170e5cc5de2a5ee2e7548d"},"modeOfTransport":"Van","postCode":"360001","name":"Nandiniba Sanjaysinh Jadeja","std":"2B","address":"Bajrangwadi Punit-2 Street -4 Jamnagar road","__v":0},{"_id":{"$oid":"5e170e5cc5de2a5ee2e7548e"},"modeOfTransport":"Van","postCode":"360002","name":"Hirva Amitbhai Shiyani","std":"2A","address":"\"I shree kkhodiayr krupa\" master soc.main road , gulabnagar street no 2 ","__v":0},{"_id":{"$oid":"5e170e5cc5de2a5ee2e7548f"},"modeOfTransport":"Parents","postCode":"360004","name":"Khushi Bhavesh Kalola","std":"2B","address":"\"Harikrishna\" 1- Alka society near mavdi fire station B/H Alka Community hall ","__v":0},{"_id":{"$oid":"5e170e5cc5de2a5ee2e75490"},"modeOfTransport":"","postCode":"360004","name":"Khushi Sanjaybhai Vaghasiya","std":"2A","address":"\"Satyam\" 1-Patel park Mayani chowk near backbonnwe shopping center , chandreshnagar main road","__v":0},{"_id":{"$oid":"5e170e5cc5de2a5ee2e75491"},"modeOfTransport":"","postCode":"360005","name":"Vaneesha Maulik Raja","std":"2C","address":"\"Shree\" 292 chandra park society , near bigbazar, st no 18 , 150 feet ring road","__v":0},{"_id":{"$oid":"5e170e5cc5de2a5ee2e75492"},"modeOfTransport":"","postCode":"360005","name":"Mahi Maheshbhai Harsoda","std":"2B","address":"Rudanagar -1 Block no 136 kalawad road","__v":0},{"_id":{"$oid":"5e170e5cc5de2a5ee2e75493"},"modeOfTransport":"","postCode":"360005","name":"Tasvi Ripalbhai Bhimani","std":"2C","address":"Nand vihar apartment sadhuvaahvani road","__v":0},{"_id":{"$oid":"5e170e5cc5de2a5ee2e75494"},"modeOfTransport":"Van","postCode":"360005","name":"Tanya Mayurbhai Rojmala","std":"2B","address":"6- Nanadi Park , B/H S.N.K School, Uni. Road, Opp. Saraswati","__v":0},{"_id":{"$oid":"5e170e5cc5de2a5ee2e75495"},"modeOfTransport":"Van","postCode":"360001","name":"Ruheena Rajubhai Pathan","std":"2A","address":"\"Shiv sadan\" subhash nagar Street no 7 , Street of haveli temple , Amrapali fatak","__v":0},{"_id":{"$oid":"5e170e5cc5de2a5ee2e75496"},"modeOfTransport":"","postCode":"360007","name":"Vidhatri Yogeshbhai Vasveliya","std":"2C","address":"Gandhigram street no :9 Nr. Dr H.G. Doshi clinic opp. Sarivaya brother","__v":0},{"_id":{"$oid":"5e170e5cc5de2a5ee2e75497"},"modeOfTransport":"","postCode":"360007","name":"Rutvi Mayurbhai Vaghela","std":"2C","address":"\"Chamunda Krupa\" bharti nagar -1 , B/H Uday hall Gandhi gram","__v":0},{"_id":{"$oid":"5e170e5cc5de2a5ee2e75498"},"modeOfTransport":"","postCode":"360005","name":"Zainab Imtiyaz Dal","std":"2C","address":"\"Sukan\" Aavnar Soc. Gangotri park -Main road University road","__v":0},{"_id":{"$oid":"5e170e5cc5de2a5ee2e75499"},"modeOfTransport":"","postCode":"360005","name":"Harvee Divyeshbhai Parmar","std":"2C","address":"\"Divyketu\" Jalaram plot no :-2 , Umiya park , University road","__v":0},{"_id":{"$oid":"5e170e5cc5de2a5ee2e7549a"},"modeOfTransport":"Parents","postCode":"360005","name":"Bansi Ajaybhai Chhaiya","std":"2C","address":"Village: Munjka Bharvad street","__v":0},{"_id":{"$oid":"5e170e5cc5de2a5ee2e7549b"},"modeOfTransport":"","postCode":"360005","name":"Janvi Hiteshbhai Chudasama","std":"2C","address":"Jivantika nagar , Gandhi nagar Ward no :1","__v":0},{"_id":{"$oid":"5e170e5cc5de2a5ee2e7549c"},"modeOfTransport":"","postCode":"360001","name":"Prachi Hiteshgar Gosai","std":"2C","address":"Flat no 102, Om complex , Ayodhya society 150 fet ring road","__v":0},{"_id":{"$oid":"5e170e5cc5de2a5ee2e7549d"},"modeOfTransport":"","postCode":"360005","name":"Vanshika Navinbhai Barot","std":"2C","address":"Block :62 New yoginagar , nearakashwani quarter , Universityroad","__v":0},{"_id":{"$oid":"5e170e5cc5de2a5ee2e7549e"},"modeOfTransport":"Van","postCode":"360007","name":"Hetvi Shaileshbhai Gohel","std":"2C","address":"Saral krupa' bharti nagr -4k ,opp. Pathak high school","__v":0},{"_id":{"$oid":"5e170e5cc5de2a5ee2e7549f"},"modeOfTransport":"Parents","postCode":"360005","name":"Janvi Machhabhai Lambariya","std":"2C","address":"opp. Saurashtra university new Munjka","__v":0},{"_id":{"$oid":"5e170e5cc5de2a5ee2e754a0"},"modeOfTransport":"","postCode":"360007","name":"Almas Mustakbhai Kureshi","std":"2C","address":"Block-16/246 RMC quarter opp. Indian park Raiya road","__v":0},{"_id":{"$oid":"5e170e5cc5de2a5ee2e754a1"},"modeOfTransport":"","postCode":"360004","name":"Navya Ajaybhai Chhaiya","std":"2C","address":"Navalnagar -3/19 swaminarayan chowk mavdi main road ","__v":0},{"_id":{"$oid":"5e170e5cc5de2a5ee2e754a2"},"modeOfTransport":"","postCode":"360005","name":"Anushka Binaykumar Pathak","std":"3B","address":"\"Arahm\" Gyan jiven soc, B/H Modi school","__v":0},{"_id":{"$oid":"5e170e5cc5de2a5ee2e754a3"},"modeOfTransport":"","postCode":"360005","name":"Apoorva Binaykumar Pathak","std":"7A","address":"\"Arahm\" Gyan jiven soc, B/H Modi school","__v":0},{"_id":{"$oid":"5e170e5cc5de2a5ee2e754a4"},"modeOfTransport":"Van","postCode":"360005","name":"Bansi Pravinbhai Pabani","std":"10A","address":"\"shilpan Kunj\" Block no -3 Parijat Residency near tulsi van appt. Sadhuvashvani road","__v":0},{"_id":{"$oid":"5e170e5cc5de2a5ee2e754a5"},"modeOfTransport":"","postCode":"360004","name":"Darshi Sohilbhai Kalola","std":"7B","address":"Virat Palace , Block no -102 , Tapu bhavan plot-1 , near swaminarayan chowk ","__v":0},{"_id":{"$oid":"5e170e5cc5de2a5ee2e754a6"},"modeOfTransport":"","postCode":"360007","name":"Aditi Pareshbhai Gor","std":"8A","address":"Shyamal vatika B-503 Near T. N. Rao school","__v":0},{"_id":{"$oid":"5e170e5cc5de2a5ee2e754a7"},"modeOfTransport":"","postCode":"360005","name":"Jeni Amitbhai Govani","std":"7A","address":"At: Gondal","__v":0},{"_id":{"$oid":"5e170e5cc5de2a5ee2e754a8"},"modeOfTransport":"","postCode":"360004","name":"Krisha Sandeepbhai Savaliya","std":"3A","address":"\"Om\" Sardar nagar Street no -2 , Patel Bording main road mavdi plot","__v":0},{"_id":{"$oid":"5e170e5cc5de2a5ee2e754a9"},"modeOfTransport":"Parents","postCode":"360005","name":"Naitri Shaktibhai Jani","std":"4B","address":"Bahusmarna Krupa 6- vaishali nagar, opp. Amrapalicinema , Raiya road","__v":0},{"_id":{"$oid":"5e170e5cc5de2a5ee2e754aa"},"modeOfTransport":"","postCode":"360005","name":"Vishva Jayeshbhai Meghani","std":"7A","address":"\"Sundaram\" block no -7 Silver send -2 opp. Big bazar , ","__v":0},{"_id":{"$oid":"5e170e5cc5de2a5ee2e754ab"},"modeOfTransport":"","postCode":"360005","name":"Manali Dipakbhai Meghani","std":"8A","address":"\"Sundaram\" block no -7 Silver send -2 opp. Big bazar , ","__v":0},{"_id":{"$oid":"5e170e5cc5de2a5ee2e754ac"},"modeOfTransport":"","postCode":"360004","name":"Shreya Sandeepbhai Savaliya","std":"8A","address":"\"Om\" Sardar nagar Street no -2 , Patel Bording main road mavdi plot","__v":0},{"_id":{"$oid":"5e170e5cc5de2a5ee2e754ad"},"modeOfTransport":"","postCode":"360004","name":"Navya Sunilbhai Vegda","std":"3A","address":"\"Sadguru Krupa\" radhanagar-2 ,laxminagar","__v":0},{"_id":{"$oid":"5e170e5cc5de2a5ee2e754ae"},"modeOfTransport":"Parents","postCode":"360005","name":"Vishwa Akshaybhai Shah","std":"4A","address":"Block no .80 , Ajanta Park Street no 1 , near gangotri dairy , sadhu vashvani road","__v":0},{"_id":{"$oid":"5e170e5cc5de2a5ee2e754af"},"modeOfTransport":"","postCode":"360005","name":"Dharmi Shirishbhai Makadia","std":"5B","address":"23,shilpan basera , Utsavpark B/H Sadhuvashvani school , University road","__v":0},{"_id":{"$oid":"5e170e5cc5de2a5ee2e754b0"},"modeOfTransport":"","postCode":"360005","name":"Diya Pramit Patel","std":"7A","address":"Block no- D4 Aalap century opp. Krishna Park , kalawad road","__v":0},{"_id":{"$oid":"5e170e5cc5de2a5ee2e754b1"},"modeOfTransport":"","postCode":"360005","name":"Vishwa Renishbhai Vachhani","std":"7B","address":"\"Chaitaniya\" block no -88 , Parimal society main roadopp. Radhakrishna temple university road","__v":0},{"_id":{"$oid":"5e170e5cc5de2a5ee2e754b2"},"modeOfTransport":"","postCode":"360006","name":"Prarthana Chetanbhai Bhalodiya","std":"3A","address":"304 Shreenathji parkcomplex150feet ring road behind gokul mathura Appartment","__v":0},{"_id":{"$oid":"5e170e5cc5de2a5ee2e754b3"},"modeOfTransport":"Van","postCode":"360005","name":"Nishtha Kiranbhai Kagathara","std":"6B","address":"Shakti nagar -7 , Golden park , Nana mava min road","__v":0},{"_id":{"$oid":"5e170e5cc5de2a5ee2e754b4"},"modeOfTransport":"","postCode":"360006","name":"Jiya Bipinbhai Gadhavana","std":"3B","address":"Vinayak vatika -1 Madhapar chowkdi Jamnagar road","__v":0},{"_id":{"$oid":"5e170e5cc5de2a5ee2e754b5"},"modeOfTransport":"Parents","postCode":"360005","name":"Mahek Prakashbhai Kundaliya","std":"6A","address":"madhuvan park -5 Sadhuvashvani road","__v":0},{"_id":{"$oid":"5e170e5cc5de2a5ee2e754b6"},"modeOfTransport":"","postCode":"360005","name":"Hanshika Bharat Miyatra","std":"6B","address":"128 , Janak puri society , sadhu vashvani road","__v":0},{"_id":{"$oid":"5e170e5cc5de2a5ee2e754b7"},"modeOfTransport":"","postCode":"360005","name":"Lisha Piyushbhai Gunjariya","std":"8A","address":"Block no -249  street no -7 Janak puri sociery , sadhuvashvani road","__v":0},{"_id":{"$oid":"5e170e5cc5de2a5ee2e754b8"},"modeOfTransport":"","postCode":"360005","name":"Pahal Renishbhai Vachhani","std":"8A","address":"Shayamal vartix A- building  block no -802 sadhu vashvani road","__v":0},{"_id":{"$oid":"5e170e5cc5de2a5ee2e754b9"},"modeOfTransport":"","postCode":"362001","name":"Urmi Nileshkumar Sodha","std":"8A","address":"152 \"Jalaram\" Rayjinagar Nr. Moti Bave","__v":0},{"_id":{"$oid":"5e170e5cc5de2a5ee2e754ba"},"modeOfTransport":"","postCode":"360001","name":"Alika Babu Keshani","std":"3A","address":"Race cource park Bidg -29, flat 1  , Ground floor , Airport park","__v":0},{"_id":{"$oid":"5e170e5cc5de2a5ee2e754bb"},"modeOfTransport":"Parents","postCode":"360005","name":"Prisha Vimal Gondaliya","std":"4B","address":"\"Radhe- Krishna\" Chandan park street no -8 Raiya raod","__v":0},{"_id":{"$oid":"5e170e5cc5de2a5ee2e754bc"},"modeOfTransport":"","postCode":"360005","name":"Vidhi Sureshbhai Faldu","std":"9A","address":"\"Riddhi\" Krishna park -1 , sadhu vashvani road , opp. Golden super market","__v":0},{"_id":{"$oid":"5e170e5cc5de2a5ee2e754bd"},"modeOfTransport":"","postCode":"360004","name":"Jeni Hiteshbhai Savaliya","std":"3A","address":"Plot no :4 , samanray soc , nr. Saffron smart school, raiya road","__v":0},{"_id":{"$oid":"5e170e5cc5de2a5ee2e754be"},"modeOfTransport":"Van","postCode":"360005","name":"Prapti Bhaveshbhai Pathak","std":"4A","address":"Block bo -201 , Wing -F , Nera Jamnagar Road, Vardhman greens, near srp camp Ring road -2","__v":0},{"_id":{"$oid":"5e170e5cc5de2a5ee2e754bf"},"modeOfTransport":"","postCode":"360005","name":"Bhavya Nayanbhai Javiya","std":"3B","address":"Blocki no F-801 , The courtyard App. Near Rajkot public school , Jivraj Park `","__v":0},{"_id":{"$oid":"5e170e5cc5de2a5ee2e754c0"},"modeOfTransport":"Van","postCode":"360002","name":"Dhruvi Bharatbhai Sakariya","std":"4B","address":"Shradhapuri -1 40 ft road opp.Navchetan school , Lalpark , Kothariya road ,","__v":0},{"_id":{"$oid":"5e170e5cc5de2a5ee2e754c1"},"modeOfTransport":"Van","postCode":"360002","name":"Dharmi Bharatbhai Sakariya","std":"4B","address":"Shradhapuri -1 40 ft road opp.Navchetan school , Lalpark , Kothariya road ,","__v":0},{"_id":{"$oid":"5e170e5cc5de2a5ee2e754c2"},"modeOfTransport":"","postCode":"360005","name":"Radhika Vishwanath Kamath","std":"9A","address":"Flat No:803 , Ruby Apartment -suncity app sadhuvaswani road .","__v":0},{"_id":{"$oid":"5e170e5cc5de2a5ee2e754c3"},"modeOfTransport":"","postCode":"360005","name":"Jiya Alpeshbhai Chapla","std":"9A","address":"101, Labh complex Aalap avenue near Toral park , university road ","__v":0},{"_id":{"$oid":"5e170e5cc5de2a5ee2e754c4"},"modeOfTransport":"Van","postCode":"360007","name":"Manshi Bharatbhai Makwana","std":"5A","address":"\"Ravechi Krupa\" 1- dharm nagar , gandhigram, 150 feet ring road","__v":0},{"_id":{"$oid":"5e170e5cc5de2a5ee2e754c5"},"modeOfTransport":"","postCode":"360004","name":"Drashti Miteshbhai Thummar","std":"8A","address":"Anmol Block no -68 Jk Sagar vatika nerasarvodaya schooln ,mavdi baypass","__v":0},{"_id":{"$oid":"5e170e5cc5de2a5ee2e754c6"},"modeOfTransport":"","postCode":"360006","name":"Purva Pareshbhai Nandaniya","std":"2B","address":"204-Empire wing , Kevlam Kingdom Appt. nera madhaper cjowkdi","__v":0},{"_id":{"$oid":"5e170e5cc5de2a5ee2e754c7"},"modeOfTransport":"","postCode":"360004","name":"Veera Hirenbhai Amrutiya","std":"2A","address":"C-304 Haridware heights opp. Gandhi school nanmauva road","__v":0},{"_id":{"$oid":"5e170e5cc5de2a5ee2e754c8"},"modeOfTransport":"Van","postCode":"360004","name":"Navya Dineshbai Vaishnav","std":"2A","address":"\"Madhav\" mahaddev wadi main road B/H Bhakti nagar sattion","__v":0},{"_id":{"$oid":"5e170e5cc5de2a5ee2e754c9"},"modeOfTransport":"","postCode":"360005","name":"Yagna Ketankumar Mehta","std":"9A","address":"Block no :50, yoginagar street no 2 opp. Jalaram Genearl Store Yogeshwer  Sadhu vaswani Road","__v":0},{"_id":{"$oid":"5e170e5cc5de2a5ee2e754ca"},"modeOfTransport":"","postCode":"360002","name":"Mishri Bhaveshbhai Bhut","std":"2B","address":"Pragati Block no -59 , Malaviay nagar -4 B/H Doshi Hiopital","__v":0},{"_id":{"$oid":"5e170e5cc5de2a5ee2e754cb"},"modeOfTransport":"","postCode":"360005","name":"Saumya Prashantkumar Sonia","std":"4A","address":"flat-102 Kalarav Apartment Alap main road , ghanshaym nagar","__v":0},{"_id":{"$oid":"5e170e5cc5de2a5ee2e754cc"},"modeOfTransport":"Van","postCode":"360005","name":"Charmi Dharmendra Shah","std":"6A","address":"B-902 Vasant Marve.l opp shivdham society vimaal nagar main road ","__v":0},{"_id":{"$oid":"5e170e5cc5de2a5ee2e754cd"},"modeOfTransport":"","postCode":"360005","name":"Siya Ashokbhai Vekariya","std":"3A","address":"Neelkant 38 Gunjan Park Behind Alap CENTURY kalawad road","__v":0},{"_id":{"$oid":"5e170e5cc5de2a5ee2e754ce"},"modeOfTransport":"","postCode":"360005","name":"Meera Bharat Variya","std":"8A","address":"Krishnashray mochi nagar main road opp r k c park shreeji park gandhigram","__v":0},{"_id":{"$oid":"5e170e5cc5de2a5ee2e754cf"},"modeOfTransport":"","postCode":"360005","name":"Prisha Jitendra Gohel","std":"2C","address":"\"Dev Chhaya\"3 bombay housing society Near dholaakiyaa school university road","__v":0},{"_id":{"$oid":"5e170e5cc5de2a5ee2e754d0"},"modeOfTransport":"","postCode":"360006","name":"Parisha Nitinbhai Chauhan","std":"2C","address":"Siddhant Gold B 502 Near Patel Chowk Behind Nagesshwar jain temple jamnagar road","__v":0},{"_id":{"$oid":"5e170e5cc5de2a5ee2e754d1"},"modeOfTransport":"","postCode":"360004","name":"Arya Jigneshbhai Dobariya","std":"2C","address":"Balaji Krupa 3 old om naghaar near khodal hotel 150 feet ring road Mavdi ","__v":0},{"_id":{"$oid":"5e170e5cc5de2a5ee2e754d2"},"modeOfTransport":"Parent","postCode":"360005","name":"Aadhya Hiteshbhai Dhamsaniya","std":"1B","address":"B-113 Utsav park , street no :2 , sadhuvashvani road ","__v":0},{"_id":{"$oid":"5e170e5cc5de2a5ee2e754d3"},"modeOfTransport":"Van","postCode":"360004","name":"Aaradhya Jaydeep Vasoya","std":"1C","address":"4-Nehrunagar, Nana Mawa Main Road, Opp. Cenemax Street","__v":0},{"_id":{"$oid":"5e170e5cc5de2a5ee2e754d4"},"modeOfTransport":"Van","postCode":"360005","name":"Aastha Bharat Miyatra","std":"1A","address":"128, Janakpuri soc. , Sadhu vashvani Road","__v":0},{"_id":{"$oid":"5e170e5cc5de2a5ee2e754d5"},"modeOfTransport":"Van","postCode":"360005","name":"Angel Hemant Sakhiya","std":"1C","address":"\"Pari\", F-2 Ravi Ratna Park, Street No.5 Uni Road","__v":0},{"_id":{"$oid":"5e170e5cc5de2a5ee2e754d6"},"modeOfTransport":"Van","postCode":"360007","name":"Bhagyashreeba Ranjitsinh Jhala","std":"1A","address":"\"Parmatma Krupa\" , Gandhigram Main road , Near patel coldrinks , S.K.Chowk","__v":0},{"_id":{"$oid":"5e170e5cc5de2a5ee2e754d7"},"modeOfTransport":"Van","postCode":"360005","name":"Aaradhya Amitbhai Tank","std":"1C","address":"Silver Gold recidency 8, Nana mauva, near Gol recidency","__v":0},{"_id":{"$oid":"5e170e5cc5de2a5ee2e754d8"},"modeOfTransport":"Van","postCode":"360007","name":"Darshini Kaushal Chauhan","std":"1A","address":"Chandramauli, Chandranagar, Nr. Airport Road, Gitgurjurey Soc. Rameshwar Chowk","__v":0},{"_id":{"$oid":"5e170e5cc5de2a5ee2e754d9"},"modeOfTransport":"Van","postCode":"360007","name":"Dhairya Shaileshbhai Unadkat","std":"1A","address":"\"Jaliyan\"Satadhar Park-2,Nalawati Chowk.Rajkot","__v":0},{"_id":{"$oid":"5e170e5cc5de2a5ee2e754da"},"modeOfTransport":"Parent","postCode":"360007","name":"Dhwani Vishal Kakasaniya","std":"1B","address":"AA-20, B/h. Ocsar Res., Nr. Laxmi Res., B/h. Strlling Hospital, 150 Feet Ring Road","__v":0},{"_id":{"$oid":"5e170e5cc5de2a5ee2e754db"},"modeOfTransport":"Van","postCode":"360004","name":"Dhyana Dharmeshbhai Dudhatra","std":"1C","address":"\"Shree Gurudevam\", B-18, Rangoli Bunglows, Bh Ramdham Nr. Shree nathaji Soc. Mavdi","__v":0},{"_id":{"$oid":"5e170e5cc5de2a5ee2e754dc"},"modeOfTransport":"Van","postCode":"360003","name":"Dhyani Chandulal Vasoya","std":"1C","address":"150 Feet Ring Road, Vavadi Road, Punit Park, Street No 1, B-43","__v":0},{"_id":{"$oid":"5e170e5cc5de2a5ee2e754dd"},"modeOfTransport":"Van","postCode":"360005","name":"Diya Ravi Sejpal","std":"1B","address":"Ramkrishnavihar , New Maruti Park, Street No.1 , Nr. Satya Sai Heart Hospital , Kalawad Road","__v":0},{"_id":{"$oid":"5e170e5cc5de2a5ee2e754de"},"modeOfTransport":"Van","postCode":"360005","name":"Diya Mehulbhai Padiya","std":"1C","address":"36,Vasvndhara Recydensy,Air Port Road","__v":0},{"_id":{"$oid":"5e170e5cc5de2a5ee2e754df"},"modeOfTransport":"Parent","postCode":"360005","name":"Drashti Mayur Kalariya","std":"1B","address":"203-Chocolate Apartment, Sadhu Vaswani Road, Opp. Ocsar City","__v":0},{"_id":{"$oid":"5e170e5cc5de2a5ee2e754e0"},"modeOfTransport":"Van","postCode":"360005","name":"Falak Sanjaybhai Savalia","std":"1A","address":"B-231, Chandra Park Soceity Part 2, Street No. 15, Nr. Big Bazar","__v":0},{"_id":{"$oid":"5e170e5cc5de2a5ee2e754e1"},"modeOfTransport":"Van","postCode":"360002","name":"Falak Bhavikbhai Pala","std":"1A","address":"Shree Mangalam App. A-502 Nr. Reliance Petrol Pump Gondal Road","__v":0},{"_id":{"$oid":"5e170e5cc5de2a5ee2e754e2"},"modeOfTransport":"Van","postCode":"360004","name":"Hetsi Sohilbhai Kalola","std":"1C","address":"Virat Palace,Block No102,Tapubhuvan Plot No1,Nr Swaminarayan Chowk,Rajkot","__v":0},{"_id":{"$oid":"5e170e5cc5de2a5ee2e754e3"},"modeOfTransport":"Parent","postCode":"360005","name":"Hirva Jay Kanani","std":"1A","address":"401, Vedant comnplex , Opp. Nachiketa school, near santvan bunglows , Jivraj park","__v":0},{"_id":{"$oid":"5e170e5cc5de2a5ee2e754e4"},"modeOfTransport":"Van","postCode":"360006","name":"Hrudya Sandeep Joshi","std":"1B","address":"Mahavir Res., 201/3 , Opp. Somnath Petrol Pump , Madahapar Chowk ","__v":0},{"_id":{"$oid":"5e170e5cc5de2a5ee2e754e5"},"modeOfTransport":"Van","postCode":"360003","name":"Hirva Sandipbhai Thummar","std":"1C","address":"Nava Thorala,Ramnagar Society,Street No.4/5 Corner,Rajkot","__v":0},{"_id":{"$oid":"5e170e5cc5de2a5ee2e754e6"},"modeOfTransport":"Van","postCode":"360004","name":"Janki Yogeshbhai Viradiya","std":"1B","address":"Alka Soc-5,\"Prashant\"Mavdi Main Road,B/h Vishveshwar Temple,Rajkot.","__v":0},{"_id":{"$oid":"5e170e5cc5de2a5ee2e754e7"},"modeOfTransport":"Van","postCode":"360002","name":"Janviba Ramdevsinh Jadeja","std":"1A","address":"Air Port Road, Shivaji Park 10/4 Corner, Ashapura Bunglow","__v":0},{"_id":{"$oid":"5e170e5cc5de2a5ee2e754e8"},"modeOfTransport":"Van","postCode":"360004","name":"Jiya Sagar Makadiya","std":"1A","address":"Backbone Heights,B-303,Nana mava Main Road Rajkot","__v":0},{"_id":{"$oid":"5e170e5cc5de2a5ee2e754e9"},"modeOfTransport":"Parent","postCode":"360005","name":"Jiya Jigneshbhai Raval","std":"1C","address":"C/O J.L.Raval,302-Kalpataru Flat,B/h Alap Green City,J.K.Park,Raiya Road.Rajkot","__v":0},{"_id":{"$oid":"5e170e5cc5de2a5ee2e754ea"},"modeOfTransport":"Parent","postCode":"360005","name":"Jiya Hitesh Sanja","std":"1C","address":"Block no -16 Nandgav university road","__v":0},{"_id":{"$oid":"5e170e5cc5de2a5ee2e754eb"},"modeOfTransport":"Van","postCode":"360004","name":"Jiya Hiren Thummar","std":"1B","address":"Shree Nathji park , Soc. No -4 , B/H Ramdhan Ashram , Mavdi","__v":0},{"_id":{"$oid":"5e170e5cc5de2a5ee2e754ec"},"modeOfTransport":"Van","postCode":"360002","name":"Jiya Vishal Mangrolia","std":"1A","address":"Stuti Madhuram Park2 Street no 2 Anand Nagar main road Near Jaljit Hall","__v":0},{"_id":{"$oid":"5e170e5cc5de2a5ee2e754ed"},"modeOfTransport":"Van","postCode":"360007","name":"Kavya Rahulkumar Chachapara","std":"1C","address":"Bhagavati Krupa Gandhigram, Street No.6, Nr. Rajesh Pan, Raiya Road","__v":0},{"_id":{"$oid":"5e170e5cc5de2a5ee2e754ee"},"modeOfTransport":"Parent","postCode":"360005","name":"Kavya Parth Raval","std":"1B","address":"Nand Bhoomi, B-621, Opp. T.N. Rao College, Uni. Campus","__v":0},{"_id":{"$oid":"5e170e5cc5de2a5ee2e754ef"},"modeOfTransport":"Parent","postCode":"360001","name":"Kavya Maulik Makadia","std":"1A","address":"\"Shanti Nivas\",Block No.20,Bharatvan Soc.,St No.1,Opp.Suryapark Mahadev Temple,Amin Marg","__v":0},{"_id":{"$oid":"5e170e5cc5de2a5ee2e754f0"},"modeOfTransport":"Parent","postCode":"360005","name":"Kenisha Chetanbhai Raval","std":"1B","address":"\"Om\" Opp. Ganesh school, Darshan park -3 , near raiya road","__v":0},{"_id":{"$oid":"5e170e5cc5de2a5ee2e754f1"},"modeOfTransport":"Van","postCode":"360005","name":"Khushaliba Hardevsinh Jadeja","std":"1B","address":"Toplend Recedancy,Block No.B/17,Sadhu Vaswani Road","__v":0},{"_id":{"$oid":"5e170e5cc5de2a5ee2e754f2"},"modeOfTransport":"Van","postCode":"360004","name":"Khushi Mayurbhai Vyas","std":"1A","address":"Ashirwad 3/13, Navalnagar Corner, Navalnagar main Road, Mavdi Main Road","__v":0},{"_id":{"$oid":"5e170e5cc5de2a5ee2e754f3"},"modeOfTransport":"Van","postCode":"360007","name":"Khushi Jayeshbhai Majethia","std":"1B","address":"\"OM Shanti Niketan\"Gandhigram Street No.3B Rajkot","__v":0},{"_id":{"$oid":"5e170e5cc5de2a5ee2e754f4"},"modeOfTransport":"Parent","postCode":"360005","name":"Kinshi Sagar Chapla","std":"1A","address":"B-804, Vasant Vihar, Sarita Park, Patidar Chowk, Sadhu Vaswani Road","__v":0},{"_id":{"$oid":"5e170e5cc5de2a5ee2e754f5"},"modeOfTransport":"Van","postCode":"360001","name":"Krisha Viren Chauhan","std":"1B","address":"\"Daya\",14-Parsana Nagar,B/h Ayyappa Temple,Jamnagar Road,Rajkot","__v":0},{"_id":{"$oid":"5e170e5cc5de2a5ee2e754f6"},"modeOfTransport":"Van","postCode":"360007","name":"Krisha Jagrutbhai Tripathi","std":"1A","address":"202,Swagat Apartment,Geet Gunjan Main Road,Rameshwar Chock.Rajkot","__v":0},{"_id":{"$oid":"5e170e5cc5de2a5ee2e754f7"},"modeOfTransport":"Van","postCode":"360005","name":"Kristy Divyeshbhai Koradiya","std":"1A","address":"Block No.5/6,Flat No.C/3,Street No 5,Ravi Ratna Park,University Road","__v":0},{"_id":{"$oid":"5e170e5cc5de2a5ee2e754f8"},"modeOfTransport":"Van","postCode":"360004","name":"Kunjan Chetanbhai Ghadiya","std":"1B","address":"Kuldevi Krupa Street No-3 Madhuvan park 1 Nr. Old Swaminarayan Gurukul , Bapa Sitaram Chowk, Mavdi Plot","__v":0},{"_id":{"$oid":"5e170e5cc5de2a5ee2e754f9"},"modeOfTransport":"Van","postCode":"360007","name":"Mahi Sandip Raimagia","std":"1A","address":"\"Rajal\",3-Ravalnagar,150feet Ring Road.","__v":0},{"_id":{"$oid":"5e170e5cc5de2a5ee2e754fa"},"modeOfTransport":"Van","postCode":"360005","name":"Mahi Kishorbhai Akbari","std":"1B","address":"Vishvakarma Society,St No.5,Pavitra Angam Appt.Flat.302,Sadhuvasvani Road","__v":0},{"_id":{"$oid":"5e170e5cc5de2a5ee2e754fb"},"modeOfTransport":"Van","postCode":"360005","name":"Nami Prashant Manek","std":"1C","address":"304 Radiance Appartment Nr Rajkot Nagarik Sahakari Bank Ltd.Raiya Road,Rajkot","__v":0},{"_id":{"$oid":"5e170e5cc5de2a5ee2e754fc"},"modeOfTransport":"Van","postCode":"360005","name":"Navya Prashantbhai Bhatti","std":"1B","address":"\"Matru Jyot\"Aai Magal-11/B,Jalaram-4,Opp.Chandramalishwal Temple,Uni Road.Rajkot","__v":0},{"_id":{"$oid":"5e170e5cc5de2a5ee2e754fd"},"modeOfTransport":"Van","postCode":"360002","name":"Navya Kalpesh Padariya","std":"1A","address":"\"Shivam\" Nilkanth park T.p. Marg no -4 , block no H2/2 kothariya main road","__v":0},{"_id":{"$oid":"5e170e5cc5de2a5ee2e754fe"},"modeOfTransport":"Van","postCode":"360001","name":"Nia Krunalbhai Kalavadia","std":"1B","address":"402-Kalarav Apt.2-Suryoday Society,Opp. WalkHart Hospital,Kalawad Road.","__v":0},{"_id":{"$oid":"5e170e5cc5de2a5ee2e754ff"},"modeOfTransport":"Van","postCode":"360005","name":"Nishtha Sameerbhai Dharsandiya","std":"1C","address":"102 Sardar App., Royal Park, Uni. Road ","__v":0},{"_id":{"$oid":"5e170e5cc5de2a5ee2e75500"},"modeOfTransport":"Parent","postCode":"360005","name":"Niva Vivek Thaker","std":"1A","address":"Parijat'B121,Aalap Century,St No5,Pushkardham Road","__v":0},{"_id":{"$oid":"5e170e5cc5de2a5ee2e75501"},"modeOfTransport":"Van","postCode":"360005","name":"Piya Dharmeshbhai Vithalani","std":"1A","address":"Savan Sinfony App. A(201) Nr. Topland Residency Raiya RAJKOT","__v":0},{"_id":{"$oid":"5e170e5cc5de2a5ee2e75502"},"modeOfTransport":"Van","postCode":"360003","name":"Priyal Nileshbhai Kukadiya","std":"1B","address":"Vapanvan App., Tirupatinagar Street No-2","__v":0},{"_id":{"$oid":"5e170e5cc5de2a5ee2e75503"},"modeOfTransport":"Parent","postCode":"360005","name":"Rahi Bipin Kakaniya","std":"1B","address":"103 Madhav complex , Natraj nagar main road , kailash park street no :2 University road","__v":0},{"_id":{"$oid":"5e170e5cc5de2a5ee2e75504"},"modeOfTransport":"Parent","postCode":"360005","name":"Sakshi Nileshbhai Dhanesha","std":"1C","address":"\"Kalrav\"Amruta Soc.Main Road,OPP.Akta App.150 Feet Ring Road.","__v":0},{"_id":{"$oid":"5e170e5cc5de2a5ee2e75505"},"modeOfTransport":"Parent","postCode":"360005","name":"Sarvangi Udaybhai Bhut","std":"1A","address":"634, Tower No. 6 Nandbhumi Appt. Opp T.N.Rao College\u0026School, Nr. Sau, Uni.","__v":0},{"_id":{"$oid":"5e170e5cc5de2a5ee2e75506"},"modeOfTransport":"Parent","postCode":"360007","name":"Shreeya Malavbhai Chauhan","std":"1A","address":"\"Aashray\" santosh park street no-1  B/H sterling hospital nanavati chowk 150feet ring road","__v":0},{"_id":{"$oid":"5e170e5cc5de2a5ee2e75507"},"modeOfTransport":"Van","postCode":"360002","name":"Shreya Bhavesh Padariya","std":"1A","address":"\"Shivam\" Nilkanth park T.p. Marg no -4 , block no H2/2 kothariya main road","__v":0},{"_id":{"$oid":"5e170e5cc5de2a5ee2e75508"},"modeOfTransport":"Van","postCode":"360005","name":"Siddhi Jigneshbhai Nadapara","std":"1B","address":"Block no.10-11, Jankuri Main Road,Janakpuri Shopping Centre,Sadhu Vasvani Road","__v":0},{"_id":{"$oid":"5e170e5cc5de2a5ee2e75509"},"modeOfTransport":"Parent","postCode":"360005","name":"Swara Nipesh Kasondra","std":"1A","address":"Nanadgav Wing No-2 , Floor No. 4 B-243, B/H Vasant Vihar Patidar Chowk","__v":0},{"_id":{"$oid":"5e170e5cc5de2a5ee2e7550a"},"modeOfTransport":"Parent","postCode":"360005","name":"Tannu Himmat Singh","std":"1B","address":"401 Riddi siddi appt 9 bombay housing society university road Rajkot","__v":0},{"_id":{"$oid":"5e170e5cc5de2a5ee2e7550b"},"modeOfTransport":"Parent","postCode":"360005","name":"Tanvi Ketanbhai Bhalani","std":"1A","address":"244 Nandbhumi Appartment,Opp T.N.Rao College,University Road","__v":0},{"_id":{"$oid":"5e170e5cc5de2a5ee2e7550c"},"modeOfTransport":"Van","postCode":"360004","name":"Tulshi Sunilbhai Sardhara","std":"1C","address":"Umiyaji Krupa Mayani nagar Street no 1 Mavdi Plot ","__v":0},{"_id":{"$oid":"5e170e5cc5de2a5ee2e7550d"},"modeOfTransport":"Van","postCode":"360005","name":"Tulsi Rakeshbhai Lalani","std":"1B","address":"Sampati-3 Appartment,Milapnagar Main Road,Panchayat Chowk","__v":0},{"_id":{"$oid":"5e170e5cc5de2a5ee2e7550e"},"modeOfTransport":"Van","postCode":"360007","name":"Unnati Ashishbhai Sutaria","std":"1B","address":"\"Navalsmruti\"3 Sahakar Nagar,B/h Swaminarayan Temple,Kalawad Road","__v":0},{"_id":{"$oid":"5e170e5cc5de2a5ee2e7550f"},"modeOfTransport":"Van","postCode":"360005","name":"Upasana Kalpakbhai Rupani","std":"1A","address":"\"Yogi Swaroop\", A-48, Asopalav Bunglows, Nr. Satya Sai Heart Hospital, Shri Satya Sai Marg","__v":0},{"_id":{"$oid":"5e170e5cc5de2a5ee2e75510"},"modeOfTransport":"Parent","postCode":"360005","name":"Usra Mohammedabdu Alkebsi","std":"1A","address":"International Transit House, Saurashtra Uni. Campus","__v":0},{"_id":{"$oid":"5e170e5cc5de2a5ee2e75511"},"modeOfTransport":"Van","postCode":"360005","name":"Vanshi Mishal Chhatrala","std":"1A","address":"B-101,Dream Hill App.Bansi Park,End Of Amin Marg,Nr.Ganga Hall","__v":0},{"_id":{"$oid":"5e170e5cc5de2a5ee2e75512"},"modeOfTransport":"Van","postCode":"360005","name":"Veera Gaurangkumar Kapadia","std":"1B","address":"Geeta'7/Silver Stone,Plot No.3,Nr.Oscar Tower,150 Feet Ring Road.","__v":0},{"_id":{"$oid":"5e170e5cc5de2a5ee2e75513"},"modeOfTransport":"Van","postCode":"360005","name":"Veera Pankajbhai Faldu","std":"1B","address":"\"Sonali\"Krishna Park,Block No.76,Opp.Alap Century.Pushkardham Main Road","__v":0},{"_id":{"$oid":"5e170e5cc5de2a5ee2e75514"},"modeOfTransport":"Parent","postCode":"360007","name":"Viha Suchit Bhuva","std":"1A","address":"\"Radhe\"10-Daimond Bunglows,Jimish Marg,Jalaram-2,University Road","__v":0},{"_id":{"$oid":"5e170e5cc5de2a5ee2e75515"},"modeOfTransport":"Van","postCode":"360005","name":"Vishva Pulkeshi Jani","std":"1C","address":"\"Tirth\",264-Janakpuri Soc., University Road","__v":0},{"_id":{"$oid":"5e170e5cc5de2a5ee2e75516"},"modeOfTransport":"Parent","postCode":"360005","name":"Vrunda Vikas Makati","std":"1A","address":"Backbone gold-404,Sadhuvasvani Road,Opposite Raj Palace.Rajkot","__v":0},{"_id":{"$oid":"5e170e5cc5de2a5ee2e75517"},"modeOfTransport":"Parent","postCode":"360005","name":"Yashashreeba Krishnadevsinh Gohil","std":"1B","address":"Gaurav Park, B-M-1/5, B/h. A.G. Society, Pushkardham Main Road","__v":0},{"_id":{"$oid":"5e170e5cc5de2a5ee2e75518"},"modeOfTransport":"Van","postCode":"360002","name":"Yashvi Amit Kothari","std":"1B","address":"401 Sankal app. , 2 Municipal Soc. Kishanpara Main Road, opp. Divya Bhaskar Press, Nr. Seva sadan App.","__v":0},{"_id":{"$oid":"5e170e5cc5de2a5ee2e75519"},"modeOfTransport":"Parent","postCode":"360005","name":"Yashvi Milanbhai Bhimani","std":"1A","address":"201-Shri Raj Complex,Chandan Park-1,Raiya Road,Opp.Sundaram App.Rajkot","__v":0},{"_id":{"$oid":"5e170e5cc5de2a5ee2e7551a"},"modeOfTransport":"Van","postCode":"360005","name":"Zalak Pankajbhai Khachar","std":"1B","address":"Ami Res. , E-301 Ambika Township, Jivraj Park","__v":0},{"_id":{"$oid":"5e170e5cc5de2a5ee2e7551b"},"modeOfTransport":"","postCode":"360007","name":"Vrushti Hitenbhai Raninga","std":"1C","address":"Block no 203 C-Wing Savan Saffron App Opp Gynesis Hospital near Bapasitaram Chowk Raiya Road ","__v":0},{"_id":{"$oid":"5e170e5cc5de2a5ee2e7551c"},"modeOfTransport":"","postCode":"360004","name":"Hasti Shaileshbhai Ardeshna","std":"1B","address":"Block no 254 Nandgaon appartment Patidar Chowk Sadhuvaswani Road","__v":0},{"_id":{"$oid":"5e170e5cc5de2a5ee2e7551d"},"modeOfTransport":"","postCode":"360005","name":"Diya Arvindbhai Bhojani","std":"1C","address":"Block no 322 Nand village patidar chowk Sadhuvaswani road","__v":0},{"_id":{"$oid":"5e170e5cc5de2a5ee2e7551e"},"modeOfTransport":"","postCode":"","name":"Diya Rakesh Vaja","std":"1B","address":"Sadguru Pooja 2 C2 103 Pujara Plot Near Bhaktinagar Circle","__v":0},{"_id":{"$oid":"5e170e5cc5de2a5ee2e7551f"},"modeOfTransport":"","postCode":"360005","name":"Heemja Ankitbhai Joshi","std":"1B","address":"Flat no E 103 Gunjan Avenue Near Indian PARK opp vikram marble raiya road ","__v":0},{"_id":{"$oid":"5e170e5cc5de2a5ee2e75520"},"modeOfTransport":"","postCode":"360001","name":"Devyaniba Rishirajsinh Jadeja","std":"1A","address":"Rushi Praban Chitrakutdham Aksharmarg Kotecha Chowk","__v":0},{"_id":{"$oid":"5e170e5cc5de2a5ee2e75521"},"modeOfTransport":"","postCode":"360005","name":"Dhruva Amitbhai Sakhiya","std":"1C","address":"Pari Ravitna Park Street 5 Block F2","__v":0},{"_id":{"$oid":"5e170e5cc5de2a5ee2e75522"},"modeOfTransport":"","postCode":"360005","name":"Janvi Ashishkumar Bhalodia","std":"1A","address":"C-604Vasant Marvel Opp Shivdham Society Vimalnagar main road University road","__v":0},{"_id":{"$oid":"5e170e5cc5de2a5ee2e75523"},"modeOfTransport":"Parent","postCode":"360005","name":"Dhruvi Kamalbhai Thaker","std":"1B","address":"Block no C 21 Green Avenue near neel city club university road","__v":0},{"_id":{"$oid":"5e170e5cc5de2a5ee2e75524"},"modeOfTransport":"Parent","postCode":"360005","name":"Dhwani Kamalbhai Thaker","std":"1B","address":"Block no C 21 Green Avenue near neel city club university road","__v":0},{"_id":{"$oid":"5e170e5cc5de2a5ee2e75525"},"modeOfTransport":"","postCode":"360005","name":"Mahek Avinash Goswami","std":"1B","address":"block no E 2/44 rural housing bopard behind A.G society kalawad road ","__v":0},{"_id":{"$oid":"5e170e5cc5de2a5ee2e75526"},"modeOfTransport":"Parent","postCode":"360005","name":"Krisha Pranav Trivedi","std":"1B","address":"Harssiddhi Krupa Nivedita Nagar Society Street no 3 Near Tulsi baug raiya telephone exchange","__v":0},{"_id":{"$oid":"5e170e5cc5de2a5ee2e75527"},"modeOfTransport":"Parent","postCode":"360005","name":"Virajba Girirajsinh Gohil","std":"1A","address":"Block no 25 Nisarg bunglow university road near neel city club","__v":0},{"_id":{"$oid":"5e170e5cc5de2a5ee2e75528"},"modeOfTransport":"","postCode":"360001","name":"Heer Ketanbhai Nathwani","std":"1B","address":"Gangavila residancy, Kailashdhara Park-2, Raiya Road","__v":0},{"_id":{"$oid":"5e170e5cc5de2a5ee2e75529"},"modeOfTransport":"","postCode":"360005","name":"Rajshvi Pradipbhai Dhadhal","std":"2A","address":"Tulsi Somnath society 1 1/3 corner op trimurti balaji temple 150 feet ring road","__v":0},{"_id":{"$oid":"5e170e5cc5de2a5ee2e7552a"},"modeOfTransport":"","postCode":"360005","name":"Greeva Maheshbhai Savsani","std":"3B","address":"302 Shree ram arcade sarita parkk street no 5 opp patidar residency","__v":0},{"_id":{"$oid":"5e170e5cc5de2a5ee2e7552b"},"modeOfTransport":"","postCode":"360007","name":"Krushi Avanish Patel","std":"3A","address":"Saubhagya Vaishali nagar street no 6 raiya road","__v":0},{"_id":{"$oid":"5e170e5cc5de2a5ee2e7552c"},"modeOfTransport":"Parent","postCode":"361005","name":"Drashta Pradipbhai Marvaniya","std":"5A","address":"551 Nand bhumi appt opp T.n.rao school for girls","__v":0},{"_id":{"$oid":"5e170e5cc5de2a5ee2e7552d"},"modeOfTransport":"","postCode":"360005","name":"Jensi Manishbhai Sorathiya","std":"3B","address":"Backbone park lane no 1 behind balaji hall ","__v":0},{"_id":{"$oid":"5e170e5cc5de2a5ee2e7552e"},"modeOfTransport":"","postCode":"360005","name":"Palakben Bharatbhai Patel","std":"9A","address":"Vimal nagar -1, B/h. Alap century, Pushkardham Area, University road","__v":0},{"_id":{"$oid":"5e170e5cc5de2a5ee2e7552f"},"modeOfTransport":"","postCode":"360005","name":"Shital Raju Sahani","std":"4B","address":"Marwari mafatiya para raiya dhar 150 feet ring road","__v":0},{"_id":{"$oid":"5e170e5cc5de2a5ee2e75530"},"modeOfTransport":"","postCode":"360001","name":"Kavya Hardikbhai Gokani","std":"4A","address":"Flat no 402 4 floor Ashray NEAR Annapurna Dinning 11 junction plot","__v":0},{"_id":{"$oid":"5e170e5cc5de2a5ee2e75531"},"modeOfTransport":"","postCode":"360001","name":"Dhruvi Jaykumar Doshi","std":"5B","address":"7-B Amrut prabhat appt 7 floor dr yaagnik road 20 New Jagnath temple Above Ram krishna Dairy Farm","__v":0},{"_id":{"$oid":"5e170e5cc5de2a5ee2e75532"},"modeOfTransport":"","postCode":"","name":"Khushali Mehulkumar Padia","std":"5B","address":"36 Vasundhara Residency Airport Road","__v":0},{"_id":{"$oid":"5e170e5cc5de2a5ee2e75533"},"modeOfTransport":"","postCode":"360005","name":"Vidhi Dharmeshbhai Rupapara","std":"6B","address":"madhuvan Street no 4 vimal nagar Behind alaap avenue university road","__v":0},{"_id":{"$oid":"5e170e5cc5de2a5ee2e75534"},"modeOfTransport":"","postCode":"360005","name":"Rudra Kamleshbhai Babariya","std":"4B","address":"Block no 157 Street no 5 Yogeshwar Behind Akashwnai Quarter University road ","__v":0},{"_id":{"$oid":"5e170e5cc5de2a5ee2e75535"},"modeOfTransport":"","postCode":"360005","name":"Mahi Tejas Babariya","std":"3B","address":"Block no 157 street no 5 yogeshwar park behind akashwnai quarter university road","__v":0},{"_id":{"$oid":"5e170e5cc5de2a5ee2e75536"},"modeOfTransport":"","postCode":"360006","name":"Urvashiba Digpalsinh Jadeja","std":"8A","address":"19-B Seri no 1 Jagruti society bhomeshwar mandir Jamnagar Road","__v":0},{"_id":{"$oid":"5e170e5cc5de2a5ee2e75537"},"modeOfTransport":"","postCode":"360005","name":"Krisha Dhananjay Joshi","std":"1C","address":"\"Bilvapatra\", 65-Nilkamal Park, Sadhu vaswani road, Uni Road","__v":0},{"_id":{"$oid":"5e170e5cc5de2a5ee2e75538"},"modeOfTransport":"","postCode":"360005","name":"Jeni Vijaybhai Kavthiya","std":"1A","address":"D 203 Sopan habhitata near nand village patidar chowk sadhuvasswnai road","__v":0},{"_id":{"$oid":"5e170e5cc5de2a5ee2e75539"},"modeOfTransport":"","postCode":"360004","name":"Khushi Ravibhai Amrutiya","std":"1C","address":"Om Appt., Patel park no 1, Mayani Chowk","__v":0},{"_id":{"$oid":"5e170e5cc5de2a5ee2e7553a"},"modeOfTransport":"","postCode":"360001","name":"Jessica Ronnie Dlima","std":"1C","address":"Shree city app flat no 804 wing A Chrisht college","__v":0},{"_id":{"$oid":"5e170e5cc5de2a5ee2e7553b"},"modeOfTransport":"","postCode":"360007","name":"Rishika Ketanbhai Pala","std":"1C","address":"A-0, Mahavir Park, Nirmala School road","__v":0},{"_id":{"$oid":"5e170e5cc5de2a5ee2e7553c"},"modeOfTransport":"","postCode":"360004","name":"Tvisha Milanbhai Aghera","std":"1C","address":"\"Sama\" Appt., B-402, B/h. Arpan Appt., Jivraj Park","__v":0},{"_id":{"$oid":"5e170e5cc5de2a5ee2e7553d"},"modeOfTransport":"","postCode":"360005","name":"Nishika Kanjibhai Sapara","std":"1C","address":"New Ambika Park-3, Sadhu vaswani road","__v":0},{"_id":{"$oid":"5e170e5cc5de2a5ee2e7553e"},"modeOfTransport":"","postCode":"360004","name":"Angel Sagarbhai Gajera","std":"1C","address":"102-Land Mark Appt., Akshar Vatika Soc., Near Gandhinagar Soc., 40 Feet ring road, Om Nagar","__v":0},{"_id":{"$oid":"5e170e5cc5de2a5ee2e7553f"},"modeOfTransport":"","postCode":"360007","name":"Vaibhavi Vishal Radia","std":"1C","address":"\"Shreeji Krupa\", 4-Subhashnagar. Near Rameshwar Chowk, Raiya Road","__v":0},{"_id":{"$oid":"5e170e5cc5de2a5ee2e75540"},"modeOfTransport":"","postCode":"360005","name":"Hetvi Arpitbhai Lunagariya","std":"1C","address":"Bombe housing society st-1, University road","__v":0},{"_id":{"$oid":"5e170e5cc5de2a5ee2e75541"},"modeOfTransport":"","postCode":"360005","name":"Meera Pankajbhai Bhut","std":"1C","address":"New Munjaka, Opp. Patel dairy, Near saurashtra University","__v":0},{"_id":{"$oid":"5e170e5cc5de2a5ee2e75542"},"modeOfTransport":"","postCode":"360005","name":"Angel Manishbhai Fangaliya","std":"1C","address":"Munjaka village, B/h. Somnath mahadev temple, Near Saurashtra University","__v":0},{"_id":{"$oid":"5e170e5cc5de2a5ee2e75543"},"modeOfTransport":"","postCode":"360005","name":"Hastiben Amitbhai Hadvani","std":"1C","address":"Balmukund-2, Balnath temple. Sadhu vaswani road","__v":0},{"_id":{"$oid":"5e170e5cc5de2a5ee2e75544"},"modeOfTransport":"","postCode":"360005","name":"Greeva Abhaybhai Kaneriya","std":"1C","address":"Kalawad road, Mota mauva village, Safal gold res, B- 203-C","__v":0},{"_id":{"$oid":"5e170e5cc5de2a5ee2e75545"},"modeOfTransport":"","postCode":"360005","name":"Reetika Anilbhai Parmar","std":"1C","address":"Plot no-4, Savgun Soc., \"Darshna\", Street 1, Sadhu vaswani road, Uni. Road","__v":0},{"_id":{"$oid":"5e170e5cc5de2a5ee2e75546"},"modeOfTransport":"","postCode":"360007","name":"Vaidehi Abhishek  Dangayach","std":"1A","address":"803 A1 Dtram city raiya road","__v":0},{"_id":{"$oid":"5e170e5cc5de2a5ee2e75547"},"modeOfTransport":"","postCode":"360004","name":"Tulsi Hareshbhai Pansuriya","std":"2C","address":"Flat no 402 Tulsipatra flat Madhuvan park 1 near avadh residency","__v":0},{"_id":{"$oid":"5e170e5cc5de2a5ee2e75548"},"modeOfTransport":"","postCode":"360005","name":"Maitri Sandipbhai Halpara","std":"2A","address":"Maitri Opp Patel kanya chhaatralia neel kant nagar main road","__v":0},{"_id":{"$oid":"5e170e5cc5de2a5ee2e75549"},"modeOfTransport":"","postCode":"360005","name":"Manyataba Divyarajsinh Zala","std":"2A","address":"Street no 2 Sadguru society Kalawad road","__v":0},{"_id":{"$oid":"5e170e5cc5de2a5ee2e7554a"},"modeOfTransport":"Van","postCode":"360005","name":"Siddhiba Pramitsinh Zala","std":"2A","address":"Block No. 1/8, 84- Unit Govt. Quarters Nr. Parimal School Kalawad road","__v":0},{"_id":{"$oid":"5e170e5cc5de2a5ee2e7554b"},"modeOfTransport":"","postCode":"360005","name":"Nirali Bhaveshbhai Sabhadia","std":"3A","address":"Asopalav Park 1 Shakti krupa Near Parijat residency ","__v":0},{"_id":{"$oid":"5e170e5cc5de2a5ee2e7554c"},"modeOfTransport":"","postCode":"360002","name":"Krishtina Sanjaybhai Jadav","std":"3A","address":"1-Subhash nagar Society Kothariya road near nanda hall","__v":0},{"_id":{"$oid":"5e170e5cc5de2a5ee2e7554d"},"modeOfTransport":"","postCode":"360005","name":"Vanshika Sameer Vadariya","std":"3B","address":"B 402 Akshar Residency 2 S.k.vadariya Near shantiniketan avenue raiya road","__v":0},{"_id":{"$oid":"5e170e5cc5de2a5ee2e7554e"},"modeOfTransport":"","postCode":"360005","name":"Devika Manishbhai Kathrotiya","std":"4B","address":"Tulsi Avenue Block no 202 Kailash Park Streer no 13 Natraj nagar main road","__v":0},{"_id":{"$oid":"5e170e5cc5de2a5ee2e7554f"},"modeOfTransport":"","postCode":"360005","name":"Diya Jaykumar Kanjiya","std":"4B","address":"B502 Shyamal Vatika","__v":0},{"_id":{"$oid":"5e170e5cc5de2a5ee2e75550"},"modeOfTransport":"","postCode":"360005","name":"Archi Ashvinbhai Pala","std":"4A","address":"Shilpan Oynax, Block No. 601, University road","__v":0},{"_id":{"$oid":"5e170e5cc5de2a5ee2e75551"},"modeOfTransport":"Parent","postCode":"","name":"Dhyani Harshadbhai Bhimani","std":"5B","address":"G 301 Shymal Vatika Near T.N.rao school","__v":0},{"_id":{"$oid":"5e170e5cc5de2a5ee2e75552"},"modeOfTransport":"","postCode":"360005","name":"Shakshi Bipinbhai Dalsaniya","std":"5B","address":"Block no 334 NAND Village Wing no 3 Patidar chowk Sadhuwaswani road","__v":0},{"_id":{"$oid":"5e170e5cc5de2a5ee2e75553"},"modeOfTransport":"","postCode":"360003","name":"Krisha Vimalbhai Akbari","std":"5B","address":"Street no 2 Cahmpak nagar pedak road ","__v":0},{"_id":{"$oid":"5e170e5cc5de2a5ee2e75554"},"modeOfTransport":"","postCode":"360005","name":"Kripa Hareshkumar Sabhadia","std":"7A","address":"Shakti krupa Ashopalav park 1 near parijat residency","__v":0},{"_id":{"$oid":"5e170e5cc5de2a5ee2e75555"},"modeOfTransport":"","postCode":"360005","name":"Zeel Jagdishbhai Hariyani","std":"7A","address":"D 180 ravratna park raod no 3 opp mahadev temple university road","__v":0},{"_id":{"$oid":"5e170e5cc5de2a5ee2e75556"},"modeOfTransport":"","postCode":"360006","name":"Sahista Amitbhai Jugatiya","std":"8A","address":"12-bajrang wadi jamnagar road","__v":0},{"_id":{"$oid":"5e170e5cc5de2a5ee2e75557"},"modeOfTransport":"","postCode":"360001","name":"Aaradhya Sanjay Soni","std":"1C","address":"61-A Shiv rajani rail nagar 2","__v":0},{"_id":{"$oid":"5e170e5cc5de2a5ee2e75558"},"modeOfTransport":"","postCode":"","name":"Diva Abhilash Bhatti","std":"5A","address":"","__v":0},{"_id":{"$oid":"5e170e5cc5de2a5ee2e75559"},"modeOfTransport":"","postCode":"360005","name":"Tanshi Kevin Makadia","std":"5B","address":"293 Oscar city tower 2 sadhuvaswani road","__v":0},{"_id":{"$oid":"5e170e5cc5de2a5ee2e7555a"},"modeOfTransport":"","postCode":"","name":"Vishwa Ranjitbhai Jalu","std":"5B","address":"","__v":0},{"_id":{"$oid":"5e170e5cc5de2a5ee2e7555b"},"modeOfTransport":"","postCode":"360002","name":"Aania Makasudahemad Halari","std":"5B","address":"Jilla Garden chock Ghanchiwad Street no 7","__v":0}]
